country_tag,country_name,country_orig_desc,country_ai_desc
ABS,Absaroka,,"The American fur trappers and traders arm the Absaroka people for their fight against their traditional Native enemies, the Lakota and the Crow. Can the Absaroka people use this new power to gain independence?"
ABU,Trucial States,,The British Empire seeks to establish an empire of its own in the Persian Gulf and is offering protection to the small autonomous sheikhdoms of the region in exchange for their loyalty. How will the Trucial States respond to this offer?
ACE,Aceh,The Aceh Sultanate is experiencing a resurgence in power due to the efforts of the Raja Muda. Can Aceh restore its empire and assert its independence in the face of Dutch expansion?,"The Aceh Sultanate has long been a thorn in the side of the Dutch East India Company. The empire has been testing the borders of Aceh in recent years, risking a full-scale conflict. How will Aceh respond to these overtures?"
ACH,Acholi,,"The Acholi have long been a powerful force in the region of West Nile, fighting against the encroachments of neighbouring kingdoms and European powers. Will the Acholi be able to maintain their independence in a rapidly changing world?"
ADG,Adagh,,The Adagh seek to expand their autonomy across their grasslands and deserts. Will their nomadic way of life remain untouched by European merchants and dynasties?
AFG,Afghanistan,"The British and Russian empires watch Afghanistan with greedy eyes, jealous of its opium fields. Is Afghanistan still the graveyard of empires?","The British and Russian empires watch Afghanistan with greedy eyes, jealous of its opium fields. Is Afghanistan still the graveyard of empires?"
AGJ,Angola Janga,,"The Portuguese have been gradually claiming more land in Angola Janga, forcing the locals to flee inland. What will be the fate of Angola Janga, and can they resist the forces of colonialism?"
AHG,Ahaggar,,"From the barren deserts of the Ahaggar, the Tuareg people have managed to create a powerful oasis of culture and prosperity. How will this fragile oasis fare in an ever-changing world?"
AIR,Air,,"The Air people stand as the guardians of the Sahara, fiercely defending their land from both desert raiders and foreign powers. Can they maintain their independence against the overwhelming odds?"
ALB,Albania,,"From the Adriatic coast to the rugged mountains of the North, Albania has long been a wild and unruly land. Will the rising tide of nationalism in Europe become a beacon for Albanians or will they be swallowed back into the Ottoman Empire?"
ALD,Algeria,Algeria lost much of its coastline to the French in the aftermath of the Barbary Wars. Can the remnants of this nation fend off further French incursions?,Algeria lost much of its coastline to the French in the aftermath of the Barbary Wars. Can the remnants of this nation fend off further French incursions?
AMZ,Amazonia,,"The vast rainforest of South America is slowly being tamed by the Europeans. Will the native tribes be able to survive the onslaught, or will they be pushed out of their homelands?"
ANH,Anhalt,,"In the middle of a unification movement sweeping across Germany, the small duchy of Anhalt stands in the way of progress. Will this small nation be able to remain independent, or will it fall prey to the ambitions of its neighbouring states?"
ANK,Ankole,,"The Kingdom of Ankole stands as the last bastion of traditional African leadership in the region. In a rapidly ever-changing world, how can they defend their kingdom against the challenges of modernity?"
ANL,Andalusia,,"The Province of Andalusia is a hotbed of revolutionary activity. With a long history of rebellion, what will be the fate of this once proud land?"
AOT,Aotearoa,,The Maori people of New Zealand have been fighting for their independence since the arrival of the Europeans. Can the Maori nation stand against the imperial ambitions of Britain?
ARA,Arabia,,The Ottoman Empire is in decline and the Arabian Peninsula is in flux. Will Arabia be able to stand independent from their former masters?
ARG,Argentina,"Argentina has won its independence from Spain, but now faces internal divisions. Can Argentina form a stable government?","Argentina is rapidly expanding into the vast Pampas, displacing the local tribes. The future of the nation is uncertain, will they continue to expand or will they be halted by their neighbours?"
ARM,Armenia,,"Straddling the border between East and West, the Armenians have a long and tumultuous history. With more nations vying for control of the region, how can the Armenians secure their independence?"
ASA,New Africa,,"The Zulu kingdom is pushing its borders outward, seeking to create a unified African nation. Will they succeed in their ambitions and create a new African superpower in the face of European colonialism?"
ASH,Ashanti,,"The Ashanti nation has been warring with its neighbours for centuries, but now it seems poised to become a major player in West African politics. Will the Ashanti be able to maintain their independence and build a strong nation?"
AST,Australia,,"As the British colonists expand their presence in Australia and the Indigenous peoples fight to protect their land, what will become of this wild and untamed continent?"
AUS,Austria,"Depending on who you ask, the Austrian Empire is in a period of either perfect balance or worrying stagnation. Revolutionary movements are suppressed across the nation, but will this status quo last forever?","Depending on who you ask, the Austrian Empire is in a period of either perfect balance or worrying stagnation. Revolutionary movements are suppressed across the nation, but will this status quo last forever?"
AWA,Awadh,,"The Indian Empire of Awadh is a melting pot of cultures, religions and philosophies. Will it be able to remain independent in a rapidly changing world, or will it be swallowed up by a foreign power?"
AWS,Aussa,,"Ethiopia has long been an independent nation, but its neighbour Aussa is now facing increasing pressure from Italian imperialism. How will Aussa fare in the face of this threat, and will it remain independent or succumb to foreign rule?"
AYI,Anyi,,"The Anyi people of the Ivory Coast have long been a powerful force in the region, with rich cultural and artistic traditions. Can they remain independent in a rapidly changing world?"
AZB,Azerbaijan,,"Straddling East and West, Azerbaijan is in a precarious position between two powerful empires. Will the azeris be able to keep their independence, or will one of the empires consume it?"
BAB,Babylon,,"The ancient city of Babylon is a reminder of a once-great empire that has been long gone. Will the people of Babylon rise again, or will they remain forgotten?"
BAD,Baden,,The Grand Duchy of Baden stands in the way of German unification. Will it be able to withstand the onslaught of its neighbours and remain independent?
BAH,Bahamas,,"The Bahamas has long been a refuge for pirates and seafarers, but now the British Empire is asserting its power over the islands. How will the locals respond?"
BAL,Bali,,The Dutch colonial forces have been encroaching upon the island of Bali and the Majapahit kingdom is struggling to keep them at bay. Will the people of Bali be able to resist the Europeans and preserve their independence?
BAS,Bastar,,British and French forces are skirmishing over control of Bastar in the early 19th century. Will the local chieftains be able to fend off the imperialists or will they succumb to outside forces?
BAV,Bavaria,"In the wake of recent revolutions across Europe, Bavaria has turned to reaction. But the embers of rebellion still burn; will Bavaria be consumed by the flames?","Despite the recent revolutions across Europe, Bavaria seeks to maintain its traditional power structure. But with the winds of change blowing outside its borders, can Bavaria survive on its own?"
BEL,Belgium,"In Belgium the industrial revolution is in full swing. The yoke of Dutch oppression was cast aside just six years ago and the country is bounding ahead of their former masters, with the construction of the first railroad in continental Europe. What does the future hold for them?","With a newfound sense of freedom, the people of Belgium look to the Industrial Revolution as their chance to make a name for themselves. Will the same spirit of innovation be enough to keep the country afloat?"
BEN,Benin,,"In the early 19th century, Benin is a powerful kingdom, and its relationship with the ever-expanding empire of Britain is on shaky ground. Can Benin withstand Britain's advancement, or will it become just another subjugated territory?"
BER,Baroda,,"The Maratha Confederacy is stretched thin holding the many princely states that comprise it, and the British forces eye Baroda with interest. Will Baroda be strong enough to resist the imperial powers?"
BGI,Bagirmi,,"As the French colonial machine spreads outward, it slowly encroaches on Bagirmi. Can this small African kingdom defend itself or will it be just another French conquest?"
BGL,Bengal,,"Despite being one of the most rich and powerful provinces of the Mughal Empire, Bengal is slowly being annexed by the East India Company. Will Bengal become another British colony?"
BGM,Begemder,,"The emperor of Abyssinia looks to Begemder as a source of wealth and stability, but the powerful local kings are not ready to submit. Will Begemder remain independent or will it succumb to imperial ambitions?"
BHO,Bhopal,,"As British India expands southward, Bhopal stands as a fortified bastion against the colonial invaders. Will Bhopal be able to fend off the British or will it eventually fall?"
BHU,Bhutan,,"The tiny kingdom of Bhutan has managed to remain independent from British imperial ambitions. With no standing army, can Bhutan continue to remain autonomous or will they be forced to submit?"
BIC,East India Company,India is the jewel in the crown of the British Empire. Can the East India Company maintain rule over this vast landscape while appeasing its shareholders?,The East India Company has established its own trading empire in India. Can they maintain their monopoly or will they be overthrown by the disgruntled natives?
BIK,Bikaner,,"Bikaner stands on the edge of the Thar Desert, providing a perfect defensive position for the local Rajput princes. But the region is a prime target for the East India Company. Will the Rajputs be able to stave off their imperial ambitions?"
BLA,Bilua,,"Bilua is a small kingdom located in the mountains of what is now Ethiopia, and it is facing pressure from the powerful Christian kingdom of Abyssinia. Will it be able to maintain its sovereignty or will it succumb to the powerful forces of the Empire?"
BLE,Baule,,Baule is a powerful kingdom deep in the heart of the African continent that is known for its powerful warrior culture. Will it be able to defend itself against the encroaching European powers or will it be assimilated into their colonies?
BLG,Bulungan,,"A powerful sultanate in present-day Indonesia, Bulungan is surrounded by hostile forces, both Christian and Muslim. Will its rulers be able to maintain its existence in the face of such adversity?"
BMB,Bemba,,The Kingdom of Bemba is a powerful force in Central Africa and its people are known for their skill as warriors. Can they withstand the onslaught of the slave trade or will they succumb to the pressures of the global market?
BND,Bundu,,"The Bundu are a nomadic people living in the savannahs of Southern Africa. Can their way of life withstand the advances of colonization, or will they be forced to submit?"
BNG,Bangala,,"The Bangala Sultanate has been a powerful force in North and Central Africa for centuries, but now its borders are facing pressure from the French colonial power. Can the powerful Sultanate remain independent, or will it succumb to French rule?"
BNY,Bunyoro,,"As the colonial powers of Europe spread further into Africa, Bunyoro is one of the last independent powers in the region. Will the Bunyoro people be able to maintain their sovereignty in the face of such powerful forces?"
BOB,Bobangi,,"The Bobangi are a people living in a series of small villages along the Central African coast. At the dawn of the 19th century, they are beginning to face the pressures of colonization. Can they remain independent or will they succumb to the imperial forces?"
BOH,Bohemia,,Bohemia is a small but powerful kingdom in Central Europe that is struggling to maintain its autonomy in the face of the ever-growing Austrian and Prussian Empires. Can they remain independent or will they be swallowed up by the powerful imperial forces? 
BOL,Bolivia,"Peru and Bolivia are close to the creation of a new confederation, but can the two countries come to an agreement? Will such a union be formed?","Bolivia is a powerful nation located in South America and is fiercely independent, standing against the imperial powers of Spain and Portugal. Can Bolivia withstand their advances or will it become another colony?"
BOR,Bornu,,"The kingdom of Bornu is the last remaining independent Islamic state in West Africa, and it is facing pressure from both the French and British Empires. Can the powerful kingdom hold its own, or will it succumb to the powerful imperial forces?"
BOS,Bosnia-Herzegovina,,"The Ottoman Empire is in decline, and the Ottoman vassal of Bosnia-Herzegovina is feeling the effects of the crumbling Empire. Will they be able to maintain their autonomy and remain independent or will they eventually succumb to the imperial forces?"
BRA,Brunswick,,The duchy of Brunswick is struggling to remain independent in the face of the ever-growing Prussian Empire. Can they maintain their independence or will they become another Prussian territory?
BRD,Burundi,,The kingdom of Burundi is one of the few African powers that is still independent at the beginning of the 19th century. Can they continue to hold their own against the powerful imperial forces or will they succumb to colonization?
BRE,Bremen,,"With the Prussian Empire expanding to the north and the Hanseatic League to the east, the city-state of Bremen is struggling to remain independent. Can it maintain its autonomy or will it fall to the powerful forces of its neighbors?"
BRI,Brittany,,The kingdom of Brittany is a small but powerful nation that is struggling to remain independent in the face of the ever-growing French Empire. Can they maintain their autonomy or will they become another French vassal?
BRN,Borana,,"The Borana people live on the fringes of the Nile Valley and are a proud, independent people. But with the rise of the powerful Islamic caliphate in Egypt, will they be able to maintain their sovereignty or will they be forced to submit?"
BRU,Brunei,"Brunei has so far repelled the attempts of colonial powers to infringe upon its sovereignty. Will Brunei fall into decline and obscurity, or could it once more become a regional power?","Brunei is a small but powerful sultanate located on the Southeast Asian island of Borneo. With the expansion of the British East India Company, will Brunei be able to remain independent or succumb to imperial ambitions?"
BRZ,Brazil,"Brazil is in a period of upheaval following the abdication of Emperor Pedro I, which left the country in the rule of regents. Will Brazil manage to overcome these obstacles and emerge as a great power?","Though Brazil is a powerful nation, it is still struggling to remain independent from its former colonial master, Portugal. Can Brazil withstand the advances of the powerful imperial forces or will it be annexed by the Portuguese?"
BST,Basuto,,"The territory of Basuto is caught between the powerful British Empire and the Boers of South Africa, sparking a fierce struggle for control. Will Basuto be able to maintain its independence, or succumb to foreign domination?"
BUG,Buganda,,"The Kingdom of Buganda is a powerful and influential kingdom in East Africa. Recently, the British have been making moves to expand their presence in the region, raising the question of whether Buganda will remain independent or become another colony of the Empire."
BUK,Bukhara,"Unlike the neighboring Khanates, the Emirs of Bukhara embrace Islamic rule rather than basing their legitimacy on descent from Genghis Khan. Will faith win the day?","In the early 19th century, Bukhara is in a period of transition between its Persian and Russian rulers. With the region in such flux, the future of the Emirate of Bukhara remains uncertain."
BUL,Bulgaria,,"After centuries of subjugation by the Ottoman Empire, Bulgaria is now free. But what will the new Bulgaria look like? Will it seek closer ties with its former oppressor, or look to the future by forging new alliances?"
BUN,Bundelkhand,,"Bundelkhand was once a powerful princely state, but recent civil unrest has weakened its standing in central India. Can Bundelkhand regain its former glory or will it be swallowed up by its larger neighbours?"
BUR,Burma,"It took many bloody conflicts to establish the Third Burmese Empire, and it seems that the struggle is far from over as the British Empire makes its ambitions known. Will Burma become yet another British colony, or will it stand strong against the foreign invaders?","The Third Burmese Empire was established by war and bloodshed, and it appears that the struggle is far from over as the British Empire moves to take more control over the region. Will Burma be able to maintain its independence or become another colony of the British?"
BYE,Belarus,,"Belarus has been the site of fierce conflict between the Tsarist Russian Empire and the Polish-Lithuanian Commonwealth for centuries. With tensions still running high, the future of this troubled region remains uncertain."
BYZ,Byzantium,,"In the early 19th century, the Byzantine Empire is in a period of decline. With its power and influence waning, will it be able to remain independent or succumb to foreign control?"
CAL,California,,"Following an unexpected gold rush in the early 19th century, California is in a state of flux, as waves of American and immigrant settlers rush to stake their claim. Can the region find peace and stability in the face of such upheaval?"
CAM,Cambodia,"Cambodia has fallen far since the golden age of the Khmer Empire. Can the Khmer state rise once more, or will this dark age last forever?","The Kingdom of Cambodia was once a powerful empire, but its influence has been waning in recent centuries. With the recent arrival of French forces in the region, can Cambodia retain its independence or will it succumb to foreign control?"
CAN,Canada,,"The Hudson's Bay Company has held a monopoly on Canadian trade for centuries. Now, with the arrival of the British Empire, will Canada be able to maintain its independence or become part of the Empire?"
CAS,Castile,,"The Kingdom of Castile was one of the most powerful kingdoms in Europe, but it has since been a site of political upheaval. Can Castile regain its former standing, or will it be swallowed up by its larger neighbours? "
CAT,Catalonia,,"Catalonia was once an independent kingdom, but it has since become part of the Kingdom of Spain. With independence once again being sought, will Catalonia be able to break away and reclaim its sovereignty?"
CAY,Cayor,,"The Kingdom of Cayor was once a powerful empire, but it has since been weakened and divided by civil wars. Can this kingdom rise again, or will it succumb to foreign domination?"
CHE,Cherokee,,"The Cherokee Nation was once a powerful indigenous nation, but it has since been reduced to a fraction of its former size. Can the Cherokee regain their independence, or will they succumb to US expansionism?"
CHI,China,"The Qing Dynasty has ruled in China for almost two hundred years and controls a third of the world's population, after the apex of its power under the Qianlong Emperor. However, the spread of opium and the interference of the European powers threatens the Dynasty’s period of internal balance. What will the future of China look like?","The Qing Dynasty is in decline, and China is in a state of flux. Will this period of weakness be the end of the old Chinese dynasties or will a new dynasty arise?"
CHK,Chokwe,,"The Chokwe people have been living in the Congo for centuries, but their numbers are decreasing as European settlers move into their lands. Will the Chokwe be able to maintain their independence, or will they succumb to foreign domination?"
CHL,Chile,"Chile is embarking on a process of political centralization, concentrating power into the hands of the government and the Church. What does the future hold for Chile?","The fledgling country of Chile is in a period of transition. Fierce political divisions exist within its borders, and foreign powers are vying for control. Will Chile be able to maintain its independence, or become yet another colonial possession?"
CHP,Champassak,,"The Kingdom of Champassak is a powerful kingdom in Southeast Asia, but it is being threatened by the encroaching French Empire. Will Champassak be able to maintain its independence, or will it succumb to foreign domination?"
CLM,Colombia,"With the dissolution of Gran Colombia in 1830, New Granada stands alone and divided between its liberal and conservative factions. Will Colombia achieve greatness once more?","Colombia is a relatively young country, but it is rapidly gaining the attention of powerful international forces. Can Colombia remain independent, or will it succumb to foreign control?"
CMI,Chiang Mai,,"The Kingdom of Chiang Mai is a powerful city-state in northern Thailand. Can it remain independent amidst growing pressure from neighbouring Siam, or will it be swallowed up by a larger empire?"
CNG,Congo,,"The Congo is a vast region in central Africa and is home to a wide array of different cultures. With the growing presence of foreign powers, will the Congo remain independent, or succumb to foreign domination?"
COB,Saxe-Coburg-Gotha,,"Saxe-Coburg-Gotha is a princely state in the German Confederation, but with the rise of revolutionary movements, can it remain independent, or will it be swallowed up by a larger nation?"
COL,Columbia,,"The newly-formed Republic of Colombia is rapidly gaining in power and influence. Can it remain independent, or will it be swallowed up by a larger country?"
COM,Comanche,,"The Comanche Nation was once a powerful indigenous people, but it has since been reduced to a fraction of its former size. Can the Comanche regain their independence, or will they succumb to US expansionism?"
COS,Costa Rica,,"The newly-formed country of Costa Rica is rapidly gaining in power and influence. Can it remain independent, or will it become yet another Spanish colony?"
CRE,Crete,,"Crete was once an independent state, but it has since been annexed to the Ottoman Empire. Can this island nation reclaim its independence, or will it remain an Ottoman territory?"
CRI,Crimea,,"The Crimean Khanate has been an independent state since the early 18th century, but it has recently come under attack from the Russian Empire. Can the Khanate remain independent, or will it be annexed by Russia?"
CRO,Croatia,,"Croatia was once a powerful kingdom in the Habsburg Empire, but it has since been diminished. Is there hope for a Croatian revival, or will the country succumb to foreign domination?"
CSA,Confederate States of America,,"The Confederate States of America was formed amidst much political turmoil and faced an uphill battle for independence. Was it ultimately successful in its bid for freedom, or did it succumb to US forces?"
CUB,Cuba,Cuban relations with their Spanish overlords have become strained. Calls for representation in the Spanish parliament and resistance to the abolition of slavery have met with hostility from Madrid. Is a Cuban revolution inevitable?,"Cuba is caught in a power struggle between Spain and the United States. Will Cuba be able to maintain its independence, or will it become a US protectorate?"
CYP,Cyprus,,"An island of strategic importance, Cyprus has long been a contested territory between the Ottomans and the Greeks. Now, with the Europeans looming ever closer, who will prevail in this tug-of-war over the Mediterranean island? 
"
CZH,Czechoslovakia,,"Crowded between Germany and Austria, the Czechs and Slovaks are in a precarious position. Nationalism is surging, and many are looking towards nationalism as a way to escape the grips of their empires. Will they find the strength to establish a free and independent nation? "
DAG,Dagestan,,"In the foothills of the Caucasus mountains, the small nation of Dagestan struggles to maintain its sovereignty against both its Imperial adversaries and rival Persian and Russian forces. What does their future hold? "
DAH,Dahomey,,This small African kingdom is fiercely independent and determined to keep its freedom in the face of a world that is becoming ever more divided by empires. Can Dahomey maintain its sovereignty? 
DAI,Dai Nam,"A newly reunited Vietnam emerges from centuries of division and strife. Will Dai Nam consolidate itself and build a great nation, or is it destined to be divided once more?","As Vietnam is divided into two distinct parts, Dai Nam must find a way to protect itself from its larger neighbors. How will this small nation survive in the face of impending domination? "
DAK,Dar al Kuti,,"Located at the crossroads of Africa, Dar al Kuti is a bustling trading post with a thriving culture and art scene. But the French are encroaching further into North Africa, and the future of the nation is uncertain. Will Dar al Kuti be able to remain independent? "
DEN,Denmark,"Across Denmark new liberal and national pushes are changing the face of politics. Meanwhile they are also undergoing a golden age of art, literature and philosophy. What will the rest of the century bring?","The revolutionary fervor is sweeping across Europe, but Denmark is determined to stay out of the conflict. Will the Danes be able to maintain their neutrality, or will they be forced to choose a side? "
DES,Deseret,,"The Mormons of Deseret are determined to create a safe haven for their people, but can their utopian vision survive in the face of a hostile world? "
DFR,Darfur,,"Nestled in the heart of Africa, Darfur is a nation in constant flux. With British and French interests constantly vying for control, what will happen to this fragile nation? "
DFT,Dar Fertit,,"A nation of forgotten warriors, the Dar Fertit people have known many generations of hardship. But with the coming of the French, a new era is beginning. Will the Dar Fertit be able to keep their independence, or will they succumb to colonialism? "
DKT,Dakota,,"Rivaling the power of the United States, the Dakota people have formed their own nation with a vast network of treaties and alliances. Can they remain independent in the face of the growing power of the US? "
DLA,Duala,,"Once a force to be reckoned with, the Duala people have become a second-class citizen in the eyes of their French masters. But can they still reclaim their sovereignty in the face of French imperialism? "
DNK,Dinka,,"Facing extreme poverty, disease, and famine, the Dinka people are struggling to survive. Can they find the strength to resist colonialism and maintain their culture, or will they be swept away by the tides of change? "
DOM,Santo Domingo,,Santo Domingo is a former Spanish colony that faces a precarious future as the world powers of Europe and America converge on the New World. What does the future hold for this small colony? 
DZG,Danzig,,"Home to many ethnic and religious minorities, Danzig is a divided city with its people caught in an endless tug-of-war between Germany and Poland. Can the city find a way to survive the political unrest? "
ECU,Ecuador,"Conflict brews in South America, and Ecuador is embroiled in it. Can Ecuador avoid being assimilated by its more powerful neighbors?","After centuries of colonial rule, Ecuador is finally free to chart its own destiny. But with the powerful Spanish still looming in the background, can this new nation remain independent? "
EGY,Egypt,"Under Muhammad Ali, Egypt has become independent from the Ottoman Empire in all but the most technical respect. Recent gains in Syria however are sure to incite a response from the Sublime Porte. Can Egypt survive the coming storm?","On the edge of Europe, Egypt is in the midst of sweeping social, political, and economic changes. But with the promise of greater stability, what path will Egypt take? "
ELS,El Salvador,,"With its population largely comprised of indigenous peoples, El Salvador is an impoverished nation in the face of foreign control. Can the Salvadorans maintain their autonomy in the face of outside forces? "
ENG,England,,"With the Industrial Revolution in full swing, England is at the forefront of the modernizing world. But will the English be able to keep up with the ever-changing pace of the world, or will they be left behind? "
EST,Estonia,,"Between Russia and Sweden, Estonia is in a difficult position. With the Tsar’s forces looming ever closer, will the Estonians be able to maintain their autonomy? "
ETH,Ethiopia,,"The birthplace of Christianity, Ethiopia stands in its own right amidst a tumultuous world. But with the Italians threatening its borders, can this ancient nation maintain its independence? "
EWE,Ewe,,"Facing a hostile world, the Ewe people are struggling to survive. Can they hold out against the antagonistic forces of foreign powers, or will they be crushed beneath the weight of colonialism? "
FIN,Finland,Finland has thus far enjoyed relative autonomy under the Russian Empire. But the whims of the Tsars are fickle; how will Russian rule shape Finland?,"The Finnish people have fought for centuries against the Swedish and Russian empires, but will they be able to maintain their independence in this ever-changing world? "
FJI,Fiji,,"As the Europeans advance further and further into the Pacific, Fiji stands as a nation divided between two imperial powers. Who will ultimately gain control of this divided island? "
FLA,Flanders,,"In the midst of the Napoleonic Wars, the Flemish people are struggling to remain independent of their French occupiers. Will they be able to fight back, or will they be overwhelmed by the French forces? "
FNG,Fang,,"Isolated in the heart of Africa, the Fang people are determined to remain independent. But with the French looking ever closer, will they be able to uphold their freedom? "
FRA,France,It has been six years since Charles X was tossed from the throne in favor of Louis Phillipe. The constant threats to the crown cause Louis Phillipe to rule with an ever tightening grip. Will France embrace a more liberal future?,"In the midst of a period of sweeping change, France is determined to maintain their power and influence in Europe. With the possibility of a great revolution ahead, what will the future bring for France? "
FRM,Frankfurt,,"Home to many revolutionary thinkers, the city of Frankfurt is a hotbed of dissent in the face of a powerful and oppressive government. Will the people of Frankfurt be able to keep their heads above water in the midst of a dangerous era? "
FSA,Free States of America,,"As the Civil War rages on in America, many are looking towards the Free States of America as a source of hope and freedom. What does the future hold for this new state? "
FTJ,Futa Jallon,,"Ruled by a powerful Muslim dynasty, the people of Futa Jallon are determined to remain free of French colonialism. Will their dream of freedom be realized, or will their efforts be in vain? "
FTR,Futa Toro,,"Located in the heart of West Africa, the people of Futa Toro are determined to remain independent in the face of French and British encroachment. Can they hold out against their formidable opponents?"
GAL,Galicia-Lodomeria,,"After the collapse of the Austrian Empire, Galicia-Lodomeria is divided between Austria and Russia. How will the people of Galicia-Lodomeria choose to live their lives in the new world order?"
GAM,Gambia,,"With Britain's presence looming large in the region, the Gambian people are stuck in an uneasy stalemate with their once-colonizers. What will be the future of Gambia?"
GBR,Great Britain,"Great Britain has roared into the 19th century, rapidly becoming the world's first industrial nation. The massive empire is kept afloat by the labor of colonies across the globe. However, King William IV is close to death and who knows what sort of era the next monarch will usher in.","With the world watching, Great Britain has been at the forefront of the Industrial Revolution and the new wave of economic prosperity. What will be the long-term consequences of this newfound power?"
GCO,Gran Colombia,,"With the break-up of the Spanish Empire, the young nation of Gran Colombia is born. Will they be able to carve out their own place in the world or will they remain dependent on the support of their former colonizers?"
GEO,Georgia,,"Ever war-torn and with a weak infrastructure, Georgia is faced with a multitude of challenges as it struggles to establish itself as an independent nation. Can Georgia survive the turmoil and stand strong?"
GER,Germany,,Germany finds itself in the midst of a period of unprecedented change as the Napoleonic Wars rage on. How will the people of Germany manage to survive and eventually come out triumphant?
GGO,Gogo,,The kingdom of Gogo is on the brink of collapse as neighboring nations encroach upon their borders. Can the people of Gogo rally together to preserve their sovereignty?
GGR,Greater Germany,,"As nationalism spreads across Europe, Greater Germany is established under a unified government. How will the people of this newly formed country make their mark on the world?"
GJM,Gojjam,,Conquerors come and go but the people of Gojjam remain fiercely independent. How will they deal with the changing landscape of the region and maintain their autonomy?
GLC,Gold Coast,,"Despite its rich resources, the Gold Coast is in a state of constant turmoil and unrest. What will be the fate of this once prosperous region?"
GLD,Geledi,,The Geledi Sultanate stands strong in the face of invading forces and is determined to preserve its sovereignty. How will they continue to protect their territory while remaining a powerful force in the region?
GRE,Greece,"Through a bloody struggle, Greece has won its independence from the Ottoman Empire. Can Greece expand its borders?","With the fall of the Ottoman Empire and the rise of the Greek War of Independence, Greece is reborn. How will the Greek people make their mark on the world and ensure that their culture and traditions will survive for generations to come?"
GRI,Guarani,,"The Guarani tribe is a proud people who have protected their land for hundreds of years. As European powers expand into their territory, how will the Guarani people face the threat of foreign invasion?"
GRN,Greenland,,"Greenland is an island nation with a small population, yet its strategic location makes it a valuable asset for nations across the world. How can Greenland protect itself and its people from foreign powers?"
GUA,Guatemala,,"In the wake of independence, Guatemala faces the daunting challenge of nation-building. How will the Guatemalan people come together to define themselves and forge a new future?"
GWA,Gwalior,,Feudalism is still the rule of law in Gwalior. Can the people of Gwalior break free from the centuries-old traditions and build a better future for themselves?
HAI,Haiti,"Under Jean-Pierre Boyer, Haiti has come to rule over all of Hispaniola. Can this nation of former slaves achieve liberty, or is Haiti doomed to despotism?","Following its successful slave revolt, Haiti stands as a beacon of freedom in an oppressive world. How will Haiti continue to flourish as an independent nation?"
HAM,Hamburg,,"The Hanseatic League continues to hold sway in Hamburg, but with a growing power base comes new challenges. How will the people of Hamburg shape their destiny in this dynamic and ever-changing world?"
HAN,Hanover,"Though Hanover is currently ruled by the British monarch, differences in inheritance laws mean that the end of the union is likely approaching. What new path will Hanover walk?","After centuries of British rule, Hanover is now independent. How will this new nation navigate through the turbulent waters of international politics and assert itself on the world stage?"
HAR,Harar,,"The ancient city of Harar is surrounded by hostile forces, yet the local people remain proud and defiant. Will they be able to protect their independence and preserve their culture?"
HAU,Damagaram,,"The mysterious kingdom of Damagaram presents an enigma to the outside world. Will its secrets be revealed, or will its mysterious veil remain forever?"
HAW,Hawaii,,"Once a kingdom, now a nation, Hawaii stands as a shining example of democracy in a world of tyranny and monarchy. How can Hawaii protect itself from being overtaken by foreign powers?"
HDJ,Hedjaz,"As the Ottoman Empire declines, the future of Arabia becomes ever more uncertain. Will a new power emerge from the desert?",Hedjaz remains an independent nation despite the political turmoil that surrounds it. How can the people of Hedjaz remain independent and preserve their way of life?
HEK,Hesse-Kassel,,The Grand Duchy of Hesse-Kassel is one of the largest German states and its prince has a reputation for being a great patron of the arts. How will Hesse-Kassel continue to nurture its culture and foster creativity?
HES,Hesse,,"After centuries of fragmentation, Hesse is beginning to unify under the House of Hesse. What will be the future of this newly formed state?"
HHE,Hehe,,"The Kingdom of Hehe is renowned for its wealth and strategic location, yet it also faces constant threats from abroad. How can the Hehe protect itself and continue to thrive?"
HLA,Halia,,"The Kingdom of Halia is a unique place, with its own culture and customs. How will the people of Halia survive the changing political landscape of the region?"
HMB,Hemba,,"In the midst of unrest and political upheaval, the Hemba people remain defiant against foreign forces. How will the Hemba maintain their independence and ensure their culture and traditions are preserved?"
HND,India,,"India is a massive and varied nation, but can it remain unified as it faces a number of challenges from abroad?"
HOB,Hobyo,,The Hobyo Sultanate exists in an era of strife and uncertainty. How can the Sultanate survive and protect its people from outsiders?
HOL,Holstein,,"The Duchy of Holstein is a small but strategic state, located at the gateway between Germany and Scandinavia. How can Holstein protect itself and stay independent in the face of foreign threats?"
HON,Honduras,,"As Spanish rule weakens in Honduras, indigenous communities have been left in a precarious position, faced with the threat of renewed colonial oppression or foreign intervention. Will Honduran independence be secured, or will new powers take control?"
HRO,Herero,,"After several decades of subjugation by German settlers, the Herero rose up in revolt. But will their rebellion be successful in securing their freedom and protecting their ancestral lands? "
HUN,Hungary,,"Since the Revolution of 1848 brought reforms to Hungary, they have grown in strength and autonomy. But with the growing power of the Austro-Hungarian Empire, will Hungary's newfound freedom be put at risk?"
HYD,Hyderabad,,The princely state of Hyderabad has managed to remain independent despite its location between the British and Mughal empires. But is its luck about to run out?
IBE,Iberia,,The Spanish and Portuguese empires have long battered each other for control over Iberia. The future of this region hangs in the balance as political turmoil shakes both countries.
IBO,Igbo,,"Following the collapse of the Oyo Empire, the Igbo have sought to strengthen their autonomy against the threat of British colonialism. Can the Igbo people continue to protect their independence?"
ICL,Iceland,,"Long under the control of the Danish crown, Iceland is now beginning to gain self-rule. Will the nation be able to make its mark on the world stage?"
IND,Indore,,"The Maratha Empire is crumbling in the face of increased British power. Can the state of Indore remain independent, or will it eventually succumb to colonial rule?"
ION,Ionian Islands,"The Islands have passed from Ottoman to Russian, French and finally British control within the past 30 years. Can the Islanders achieve Enosis with the new Greek state or will they seek a new path forward under British guidance?","Greece is beginning to stir, and the Ionian Islands are no exception. Do the islanders have the courage to stand up to the Ottoman Empire and fight for freedom?"
IRC,Iron Confederacy,,"The Iron Confederacy of North America has become a place of refuge for escaped slaves and Indigenous people. What will be the fate of the Iron Confederacy, and will it be able to protect its newfound freedoms?"
IRE,Ireland,,"Ireland is beginning to feel the strain of English colonialism. Will the Irish be able to resist English domination and regain their independence, or will they be forced to endure English rule?"
IRQ,Iraq,,Iraq has long been a pawn in the Great Game between the British and Russian empires. Will it be able to break free from foreign control and secure its independence?
ISQ,Isaaq,,"After centuries of domination by the Yemeni sultanate, the Isaaq people of the Somali peninsula seek to throw off their oppressors. Will freedom be won, or must they fight a prolonged struggle?"
ISR,Israel,,"Modern Israel is a patchwork of warring nations, all vying for control. Will a lasting peace be achieved, or will the region be consumed by strife?"
ITA,Italy,,"The nation of Italy is beginning to emerge, but powerful rulers still cling to their own self-interests. Will Italy come together as a unified state, or will it remain divided?"
JAI,Jaipur,,"Jaipur is a key strategic point in the Maratha Empire. Will it become another victim of British colonialism, or will it remain free and strong?"
JAM,Jamaica,,"Jamaica has long struggled against British colonialism and the slave trade. Can the Jamaican people find freedom and justice, or will they be trapped in the oppressive system forever?"
JAN,Jan Mayen,,"In Jan Mayen, Norway and Denmark lay competing claims. Will it become an independent state, or will it be reduced to a pawn in their rivalries? "
JAP,Japan,"The strength of the ruling Tokugawa shogunate is failing, with famine and unrest spreading all across the country. The Edo period has lasted in Japan for over 200 years, will it be able to last for 200 more?","Japan is on the brink of modernizing, but it is still full of traditional customs. Will it be able to balance its traditional and modern values, or will one side prevail?"
JAS,Jaisalmer,"Almost all of India is now under the direct or indirect control of the British East India Company. The Nawabs of the princely states still exert a strong degree of rule over their territories, but ultimately answer to the Company. Will India ever be free from British rule?","The city of Jaisalmer has been under the control of a succession of different rulers over the centuries. Will it remain a powerful symbol of independence and cultural identity, or will it become just another vassal state?"
JAV,Java,,"The island of Java has been subjected to various colonial powers over the years. Will the Javanese people continue to fight for independence, or will they be swallowed up by the powers that be?"
JLF,Jolof,,The Jolof kingdom of West Africa has a long and storied history of resistance to foreign powers. Can the people of Jolof continue to protect their autonomy and their way of life?
JOD,Jodhpur,,"After the fall of the Mughal Empire, the princely state of Jodhpur has sought to carve out its own path. Will the people of Jodhpur be able to maintain their independence, or will they be swallowed up by a neighboring power?"
JOH,Johore,Johor occupies a precarious position as both the British and the Dutch greedily eye their territory. Will Johor manage to retain what little sovereignty it has left?,"The sultanate of Johore is a powerful force in the region. Will it withstand the pressures of European colonization, or will it be forced to submit to foreign domination?"
KAL,Kalat,,"The Baloch people of what is now Pakistan are struggling against their Persian overlords. Can they gain autonomy, or will they succumb to imperial control? "
KAS,Kashmir,,"Kashmir is a hotly contested region, with both India and Pakistan claiming it as their own. Will it remain divided in two, or will a lasting peace be achieved? "
KAZ,Kazakhs,,"As the tsar's rule tightens in Central Asia, the nomadic Kazakhs are facing a threatened way of life. Will they be able to survive in a changing world, or will their way of life perish?"
KBA,Kuba,,"The kingdom of Kuba is beginning to feel the pressure of European colonizers. Can the Kuba people protect their independence and their customs, or will they be swept away in the tide of colonialism? "
KBD,Kabadougou,,"The West African kingdom of Kabadougou is fighting for survival against its powerful neighbors. Will it be able to maintain its independence, or will it succumb to foreign forces?"
KBU,Kaabu,,"The Kaabu Empire is a rising power in West Africa. Will it manage to hold its own against encroaching European influences, or will it be consumed by colonial ambitions?"
KFA,Kaffa,,"The port city of Kaffa in Ethiopia is an important trading hub. As European powers jostle for control, will Kaffa remain a focal point for commerce and diplomacy, or will it be forgotten in the maelstrom of empire?"
KHI,Khiva,"In defiance of both Persia and Russia, Khiva is an independent power flourishing under the rule of the Khan. Can Khiva protect its independence?","The Khanate of Khiva is wedged between two great empires, Russia and the Ottoman Empire, both of which have designs on Khiva's territory. Can the Khans hold on to their country, or will they succumb to foreign intervention?"
KKY,Kikuyu,,"The Kikuyu people are struggling to find an identity in the face of rapid modernization and westernization. Can the culture of the Kikuyu survive the onslaught, or will it be forever lost?"
KNG,Kong,,"The Kong Empire has long been in decline, and its people are in need of a new leader who will restore the Empire to its former glory. Can Kong overcome its troubles and return to its former power?"
KNK,Kanak,,"The Kanak people are struggling to keep their culture alive amidst the onslaught of French colonization. Will they be able to keep their traditional way of life, or will they be forced to assimilate?"
KOK,Kokand,Kokand struggles with disunity and discord within the Khan's court. Can Kokand become a dominant power in Central Asia?,"The Khanate of Kokand is caught in the turmoil of the Great Game between Russia and Great Britain. Will it survive the struggle for control, or will it succumb to imperial domination?"
KON,Kongo,,"The Kingdom of Kongo is beset by civil war and unrest. Can the Kongolese regain control of their land and keep the peace, or will the kingdom remain divided?"
KOR,Korea,"Korea under the Joseon dynasty looks inward, consumed by its factional politics. Will changing times force Korea to consider the outside world?","Korea is in the midst of a struggle for independence from Japanese rule. Can the Korean people reclaim their freedom, or will their nation remain subjugated to a foreign power?"
KRA,Krakow,"The legacy of the Polish people rests heavily on the shoulders of the Free State of Krakow, distrusted by its constituting powers and occupied by Austria. Can a new Polish state rise from the ashes once again?","Krakow is at the heart of the Polish struggle against foreign occupation. Will the Poles succeed in their quest for freedom and independence, or will they remain subject to the will of their oppressors?"
KRG,Karagwe,,"The Kingdom of Karagwe is beginning to see the rise of a powerful elite class. Can the people of Karagwe restore balance to their society and break the power of the ruling class, or will their inequality continue to grow?"
KRT,Kaarta,,"The Kaarta Confederacy seeks to break away from the oppressive control of the French Empire. Can they succeed in their quest and bring lasting peace, or will they only bring further conflict and strife?"
KRU,Kru,,"The Kru people of West Africa have long been in conflict with their neighbors and rivals in the region. Will the Kru be able to find peace and prosperity, or will they continue to fight?"
KSN,Kasanje,,"The Kasanje Kingdom of Central Africa is in the midst of a great transformation, as the people seek to modernize and modernize their economy and society. Will the Kasanjans survive the change, or will they succumb to outside forces?"
KTI,Kutai,,"The Kutai Sultanate is in a state of political flux, with internal divisions threatening to weaken the state. Can the Sultanate hold on to its power, or will it succumb to foreign interventions?"
KUK,Danubian State,,"The Danubian State is a fledgling nation in the midst of turmoil and upheaval. Will it survive the challenge, or will it be swept away in the tide of revolution?"
KUT,Kutch,,"The Kutch Sultanate is beset by threats from the powerful Mughal Empire and the Portuguese. Will they be able to protect their fragile independence, or will they be overrun by their rivals?"
KZM,Kazembe,,"The Kazembe Sultanate is a powerful kingdom in Central Africa, but their power is threatened by the Portuguese and other European powers. Can the Sultanate stand against its rivals, or will it succumb to foreign domination?"
LAD,Ladakh,,"The Ladakh Kingdom is caught between the imperial whims of the British and Chinese empires. Will it be able to maintain its independence, or will it become a battleground for the two rival powers?"
LAN,Lanfang,The Republic of Lanfang was established by a democratic syndicate of Chinese miners hoping to exploit the gold reserves of Borneo. Can Lanfang resist the advances of the Dutch and achieve the prosperity it seeks?,"The Lanfang Republic seeks to claim independence from its Dutch masters. Can the Republic triumph against its oppressors, or will it remain a subject of Dutch rule?"
LAO,Laos,,"The Kingdom of Laos is in the midst of a struggle to establish its own identity and independence in the face of French colonial domination. Can Laos stand up for its rights, or will it remain subjugated?"
LAT,Latvia,,"The Latvian people are struggling for national independence from the Tsarist regime of Russia. Can they succeed in their struggle and secure their rights, or will they remain oppressed?"
LBA,Luba,,"The Luba Empire is a powerful kingdom in Central Africa, but it is beset by rival states and imperial incursions. Will the Luba be able to maintain its independence against these threats, or will it succumb to foreign domination?"
LGA,Lega,,"The Lega people are in a race for independence from their traditional rulers in the Congo Free State. Can they triumph in their fight for freedom, or will they remain under foreign domination?"
LIB,Liberia,,"Liberia is a fragile nation in the midst of civil war, as rival factions battle for control of the country. Can Liberia survive this conflict and emerge as a stable nation, or will it succumb to further chaos and destruction?"
LIP,Lippe,,"The Principality of Lippe is a small nation in the midst of German unification. Will they be able to secure their independence, or will they be swallowed up by their larger neighbors?"
SCM,Schaumburg-Lippe,,"The Principality of Schaumburg-Lippe is a small state caught in the turbulence of German unification. Can they remain independent, or will they become part of the new German Empire?"
HOH,Hohenzollern,,"The Hohenzollern Princes are struggling for control over the Prussian monarchy in the face of growing pressure from German unification. Will they be able to hold on to their power, or will they be swept away in the tide of history?"
SCW,Schwarzburg,,"The Schwarzburg Princes are struggling to maintain their power in the face of growing German unification. Will they be able to protect their autonomy, or will they be forced to surrender to the new German Empire?"
LIT,Lithuania,,"The Grand Duchy of Lithuania is struggling to secure its independence in the face of Russian imperialism. Will the Lithuanians succeed in their quest for freedom, or will they succumb to Russian rule?"
LKT,Lakota,,"The Lakota nation is in the midst of a long struggle for autonomy and freedom from American rule. Can the Lakota people reclaim their independence, or will they be forever subject to outside forces?"
LND,Lunda,,"The Lunda Kingdom of Central Africa is a powerful state, but it is threatened by imperial incursions from the Belgian Congo and South Africa. Will the Lunda be able to stand their ground, or will they be overrun by their foreign rivals?"
LNG,Loango,,"The Kingdom of Loango is a powerful state on the West African coast, but it is beset by imperial incursions from Europe. Will the Loango be able to defend their independence and autonomy, or will they succumb to foreign domination?"
LOM,Lombardia,,"Lombardia has experienced a period of rapid growth and development, with many new factories being built and the country's economy flourishing. However, its monarchs have been facing stiff resistance from the people of the region due to their oppressive measures. Can the current political climate be sustained or will it lead to revolution?"
LUA,Luang Prabang,"Once the seat of the mighty Kingdom of Lan Xang, Luang Prabang is a shadow of its former self. Split between the regional powers of Dai Nam and Siam, can the Lao people emerge strong and independent?","Luang Prabang is a kingdom that has been fought over by a number of different nations throughout its history. With the arrival of European powers in the 19th century, the fate of the kingdom hangs in the balance. Will Luang Prabang return to its past glory or will it succumb to foreign influences?"
LUB,Lübeck,,"Lübeck is a powerful city-state, at the heart of the Hanseatic League. It has been a major commercial and trading port for centuries, and with the advent of the 19th century, this influence continues to grow. What new opportunities await this port city in the years to come?"
LUC,Lucca,"Torn from their rightful Parman lands, the house of Bourbon-Parma was granted Lucca until they could reclaim their rightful throne within Parma upon the death of Marie Louise. With Italian nationalism on the rise, how long can this aberration survive?","Lucca is a small city-state in Tuscany, Italy that was a part of the Papal States until the 19th century. As the Italian Unification Movement begins to gain momentum, will Lucca be able to remain independent or will it become engulfed in the movement?"
LUO,Luo,,"The Luo people of what is now modern day Kenya have been living in the region since the 16th century. With the arrival of the British in the 19th century, their traditional way of life is slowly being replaced by British colonial rule. Will the Luo maintain their autonomy or will they succumb to foreign rule?"
LUX,Luxembourg,,"After centuries of being under the control of other European states, Luxembourg officially became an independent state in the 19th century. As the country begins to assert its independence, many of its neighbors watch with wary eyes. Can Luxembourg maintain its freedom or will it be swallowed up by the surrounding nations?"
LZO,Barotse,,"The Barotse people of modern day Zambia have a long and proud history of independence, having resisted British rule for a number of decades. As British colonialism spreads across the continent, will Barotse remain independent, or will it succumb to British rule?"
MAD,Madagascar,,"Madagascar is an island nation off the east coast of Africa, and the Malagasy people have a long and proud history of independence. However, many of their neighbors are beginning to take an interest in their island, seeking to colonize and exploit the resources of the region. Will the Malagasy remain free, or will their homeland be swallowed up by the colonial powers?"
MAK,Makran,,"The people of Makran, which is an area of the modern day Iran-Pakistan border, have had a long and tumultuous history. After a period of relative peace, the 19th century saw the arrival of the British and the introduction of liberalism, which aimed to bring reform to this society. Can the people of Makran adapt to these new ideas or will they resist?"
MAN,Manhattan Commune,,"In the early 19th century, a radical experiment in communal living unfolded in lower Manhattan. The Manhattan Commune, as it was known, sought to challenge the capitalist status quo and provide an alternative to the corrupt politics of the city. Will this experiment succeed or will the Commune be crushed by the forces of the status quo?"
MAY,Maya,,"The Maya people of modern day Mexico and Central America have had a long and varied history. In the 19th century, a new wave of colonialism swept across the region, as the Spanish and other European powers sought to colonize the Maya land. Will the Maya be able to remain free or will they succumb to this new wave of imperialism?"
MCH,Manchuria,,"Manchuria is a region in northeast Asia that has been the site of conflict for centuries. In the 19th century, the Manchurian people were threatened by the encroachment of the Russian Empire and the newly formed Chinese Republic. What does the future hold for this isolated region?"
MCR,Micronesia,,"Micronesia is an archipelago of islands in the Pacific Ocean. The region has a colorful history, having been colonized and fought over by various nations in the 19th century. What lies in store for this seemingly forgotten corner of the world?"
MDK,Mandinka,,"The Mandinka people of modern day Senegal, Mali and Gambia have been living in relative peace since the 16th century. But with the arrival of the French in the 19th century, the Mandinka find themselves threatened once again. Will they be able to maintain their independence or will they succumb to foreign rule?"
MEC,Mecklenburg,,"Mecklenburg is a small state located in Northern Germany. It is a constitutional monarchy, and its rulers have traditionally enjoyed a good relationship with their citizens. But will this continue in the 19th century, as the country is threatened by revolutionary forces from within and without?"
MST,Mecklenburg-Strelitz,,"Mecklenburg-Strelitz is a small state located in Northern Germany and is an integral part of the German Confederation. However, the region is experiencing great social and political unrest as the industrial revolution gains momentum. Will the region be engulfed by revolution or can the current rulers hold on to power?"
WLD,Waldeck,,"The small principality of Waldeck is located in northern Germany, and it has traditionally been ruled by a princely family. With the onset of the 19th century, however, the ruling family has been challenged by a growing revolutionary movement. Will Waldeck remain under the control of its princely rulers, or will it be swept up in the tide of revolution?"
MEI,Saxe-Meiningen,,"Saxe-Meiningen is a German state located in the heart of the country. It is in the midst of a period of great change, as industrialization, the rise of the labor movement, and the increasing conflict between the rural and urban populations have all been making an impact. What will the future hold for this state?"
MEW,Mewar,,"The kingdom of Mewar is located in modern day Rajasthan, India and is one of the oldest surviving princely states. The region has a long and proud history of independence, but with the arrival of the British in the 19th century, the stability of the state comes into question. Will the proud people of Mewar be able to maintain their independence, or will they succumb to foreign rule?"
MEX,Mexico,Tension between Mexico and the newly declared Texas Republic has turned into all out war. Will Mexico reconquer Texas and return to the status quo?,"After a period of turmoil and discord, Mexico was finally unified in the 19th century and became a republic. The country was in the midst of a period of modernizing reforms, and many were optimistic about the future. But will these reforms prove to be successful, or will Mexico succumb to chaos once again?"
MGL,Mongolia,,"The Mongolian people have a long and proud history of independence, and for centuries they were able to successfully defend their borders. However, in the 19th century their lands were threatened by the expanding Russian and Chinese empires. Will Mongolia remain independent or will it be swallowed up by its formidable neighbors?"
MJT,Majerteen,,"The Majerteen tribe of Somalia has a long and proud history. In the 19th century, however, they are being threatened by the growing influence of the Ottoman Empire. Will the Majerteen be able to remain independent, or will they succumb to foreign pressure?"
MKT,Miskitia,,"The Miskitia people of Honduras and Nicaragua have a long and proud history. With the arrival of the Spanish in the 19th century, however, their traditional way of life is being threatened by the forces of colonialism. Can the Miskitia resist or will they succumb to foreign rule?"
MNB,Mangbetu,,"The Mangbetu tribe of modern day Democratic Republic of Congo has a long and proud history, but in the 19th century they are threatened by the arrival of foreign forces. Will the Mangbetu be able to remain independent or will they be conquered by the Europeans?"
MNC,Manica,,"The Manica people of modern day Mozambique have traditionally lived a largely isolated lifestyle, having been able to successfully defend their lands from foreign encroachment. However, this is changing in the 19th century as the British move in and seek to colonize the region. Will Manica remain independent or will it become a part of the British Empire?"
MOD,Modena,"The Duchy of Modena is both ruled by, and politically subservient to, the Hapsburgs and the Austrian Empire. Will Modena shake off these chains of family loyalty, or do the ties that bind restrict too much?","The Italian region of Modena is a small but influential state in Italy. With the Italian Unification movement gaining momentum in the 19th century, the fate of this region hangs in the balance. Will Modena be able to remain independent or will it be swept up in the tide of unification?"
MOL,Moldavia,"Calls for Romanian unification and political independence complicate regional politics, as both Russia and the Ottomans have an interest in enforcing the status quo. Can Romania win its freedom?","Moldavia is an independent principality located in the eastern part of Europe. It has a long and tumultuous history, having been fought over and divided among a number of different empires in the past. With the rise of the Russian Empire in the 19th century, the fate of Moldavia is once again in the balance."
MON,Montenegro,,"The small nation of Montenegro has a long and proud history of independence, but in the 19th century it is threatened by the competing interests of the Ottoman and Russian Empires. Will the people of Montenegro be able to maintain their autonomy, or will they succumb to foreign pressure?"
MOR,Morocco,"No longer under Ottoman protection, Morocco is vulnerable to French and Spanish expansionism. Can Morocco survive the imperialist onslaught?","In the 19th century, Morocco was a thriving kingdom, but it was also in a period of crisis. With the European powers vying for influence in the region, and rising tensions between the tribal populations and the ruling elite, the future of this kingdom hangs in the balance."
MOS,Mossi,,"The Mossi people of modern day Burkina Faso have a long and proud history, but in the 19th century their nation is threatened by the encroachment of the French. Will the Mossi be able to hold off the French or will they succumb to foreign rule?"
MSH,Mashona,,"The Mashona people of modern day Zimbabwe have a long and proud history, but in the 19th century, their lands were threatened by the encroaching British Empire. With the rise of British colonialism, what does the future hold for the Mashona people and their traditional way of life?"
MSI,Masai,,"The Masai have long been seen as a proud people, fiercely guarding their lands. But in the early 19th century, their borders become ever smaller as the European powers begin to encroach on their territories. Can the Masai keep their way of life alive or will they succumb to the forces of imperialism?"
MSK,Maseko,,"In the early 19th century, Maseko is struggling to stay independent against the encroachments of the Zulu and the Ndebele Empire. Will they be able to outlast the onslaught, or will their kingdom succumb to foreign domination?"
MSN,Massina,,"The Massina Empire spans across West Africa, but is besieged by the rising power of the Ouagadougou Empire in the early 19th century. Can the Massina Empire withstand their rival and keep their independence, or will they succumb to the onslaught of their neighbor?"
MTB,Matabele,,"The Matabele Empire is expanding further into the interior of Southern Africa, but it meets with fierce resistance from the Ndebele, who have a long-standing rivalry with the Matabele. Can the Matabele fight off their rival and keep their empire intact, or will they be driven back by the onslaught?"
MTC,Métis,,The Métis people of North America are caught between the two great powers of the United States and the British Empire. Will they be able to hold onto their lands and stay independent or will they be subsumed by one or the other?
MUG,Hindustan,,"The British East India Company is making inroads into Hindustan, as it attempts to extend its control over the entire subcontinent. Can the people of Hindustan withstand this onslaught and keep their independence, or will they succumb to European domination?"
MYS,Mysore,,"Karnataka is threatened by the rising power of Mysore. With its formidable army, the Mysoreans are a force to be reckoned with. Can the people of Karnataka resist the onslaught and keep their independence, or will they be consumed by their rival?"
NAG,Nagpur,,"The Maratha Confederacy is in conflict with the British East India Company, with the city of Nagpur at the heart of the conflict. Will the Maratha be able to withstand this onslaught, or will they be caught in the crossfire?"
NAH,Anahuac,,"Mexico is in the midst of a struggle for independence from the Spanish Empire, with the people of Anahuac at the forefront. Will they be able to break free from Spanish rule or will they succumb to it?"
NAL,Natalia,,"Natalia is under the rule of the Dutch East India Company, causing great unrest among the population. Will they be able to overthrow their oppressors and gain independence, or will they remain under Dutch rule?"
NAM,Nama,,"The Nama people have been fighting for their independence from the Dutch for many years. Do they have the strength to stand up to their oppressors, or will they be forced to succumb to Dutch rule?"
NAS,Nassau,,"The newly formed country of Nassau is struggling to survive amongst the larger countries in the region. Can they hold onto their independence, or will they be consumed by the wave of European colonialism sweeping across the Caribbean?"
NAV,Navarra,,The small kingdom of Navarra is beginning to feel the squeeze of its larger neighbors. Can the kingdom remain independent or will it be annexed by Spain?
NEJ,Nejd,,The country of Nejd is caught in a power struggle between the forces of the Ottoman Empire and the growing power of the Saudi family. What will be the destiny of this conflict-ridden nation?
NEN,New England,,"With the founding of the United States, the people of New England are struggling to find their footing in a new nation. Will they be able to carve out a place for themselves in America, or will they be left behind in the dust?"
NEP,Nepal,,The Hindu kingdom of Nepal is threatened by the expansionist ambitions of the East India Company and Chinese dynasties. Will Nepal be able to keep its independence or will it be subsumed by its opponents?
NET,Netherlands,"The Netherlands lost Belgium to revolution six years ago and while still economically stable, their rate of industrialization is slow compared to some of their neighbors. Will the Netherlands be able to emerge as a powerhouse of the 19th century?","The Dutch are amidst a period of reform and liberalization, but they remain a part of the powerful Holy Alliance. Can they remain independent or will they be subsumed by the power of the other European nations?"
NEW,Newfoundland,,"The British are beginning to expand their influence in Newfoundland, with the hopes of turning the country into a lucrative colony. Can the people of Newfoundland resist the onslaught of British rule, or will they succumb to it?"
NGF,North German Federation,,"The newly formed German Empire is balancing between Prussian dominance and the wishes of the smaller German states. Can the federation remain stable, or will it be torn apart by the internal tensions?"
NIC,Nicaragua,,"In the early 19th century, Nicaragua is caught between the ambitions of the Spanish Empire and the growing forces of the United States. Will Nicaragua remain independent or will it be engulfed by its larger neighbors?"
NOR,Norway,"Norway has spent centuries under Danish and Swedish rule, but now dreams of sovereignty. What will it take for Norway to win its independence?","Norway is struggling to make its first tentative steps into industrializing and modernizing, but it is hampered by a small population and inadequate resources. Can Norway break free from its limitations or will it remain stuck in the past?"
NRU,Nauru,,"With the arrival of the British, Nauru is in the midst of a power struggle between two colonial forces. Can the Nauruans resist the encroachment of the British and carve out a place for themselves in a new age?"
NTO,Ngāti Toa,,"Ngāti Toa is struggling to maintain its independence in the face of British colonisation. Can the Maori people resist the tremendous pressure of the British Empire, or will they be forced to succumb to its rule?"
NTU,Ngāi Tahu,,Ngāi Tahu is caught in a power struggle between the British and the Ngāti Toa. Can the Ngāi Tahu remain independent or will they be overrun by their more powerful neighbours?
NUE,Nuer,,The Nuer people of Sudan are caught in a power struggle between the Ottoman Empire and the Egyptians. Can they hold their own or will they succumb to the foreign powers vying for control over them?
NVJ,Navajo,,"The Navajo Nation is caught in a struggle between the United States and Mexico, with the region often a battleground between the two. Can the Navajo remain independent or will they be subsumed by the powerful foreign forces?"
NYM,Nyamwezi,,The Nyamwezi people of East Africa are caught in a power struggle between the powerful Omani Empire and the rising power of their neighbours. Can the Nyamwezi resist the pressure or will they be forced to succumb?
NZL,New Zealand,,The Maori people of New Zealand are resisting the British Empire's attempts to colonize their lands. Will they be able to fight off the onslaught or will they be forced to become a part of the British Empire?
NZP,Nimíipuu,,"The Nimíipuu people of America are struggling to hold on to their lands against the encroachment of the United States. Can the Nimíipuu keep their lands and their culture intact, or will they succumb to the onslaught of the powerful foreign invaders?"
OLD,Oldenburg,,The Grand Duchy of Oldenburg is caught in a power struggle between the German Empire and the powerful Kingdom of Prussia. Will Oldenburg remain independent or will it be annexed by one of its larger neighbours?
OMA,Oman,"Ruling over both Oman and Zanzibar, the Sultanate is establishing an intercontinental empire. Can Oman remain united?","With the ruling sultan divided between reformers and traditionalists, Oman is in the midst of a power struggle in the early 19th century. Will the sultan be able to hold onto power and modernise his nation, or will it succumb to internal strife?"
ORA,Oranje,,"The House of Orange, formerly rulers of the Dutch Republic, have been exiled due to their ties to the French monarchy. Yet, their legacy lives on in the form of a new nation, the Kingdom of Oranje. Will a new era of prosperity soon be ushered in for the country, or will its golden dreams remain unfulfilled?"
ORG,Oregon,"Currently under relatively autonomous administration, both the Hudson Bay Company and the US government have set their eyes on the disputed Columbia district. Will either power succeed, or will an independent Oregon emerge?","In the wake of the Lewis and Clark expedition, settlers from the United States are staking their claim on the lands of the nation of Oregon. How will the native Americans respond to this influx of colonizers?"
ORI,Orissa,,"The sultanate of Orissa is an important trading hub in the Indian subcontinent, bringing together goods from both East and West. With the East India Company now in control, what will be the future of the region's commerce?"
OUA,Oualata,,"The city-state of Oualata has managed to remain relatively independent in the face of increasing colonial powers in the region. But will they be able to maintain their freedom, or will they be swallowed up by the ambitions of the neighboring nations?"
OVM,Ovimbundu,,"The Ovimbundu people have long been a major trading power in the region of Central Africa, but now they are threatened by the encroachment of the Portuguese colonists. How will the Ovimbundu resist the onslaught of imperialism?"
OYO,Oyo,,"The ancient kingdom of Oyo was once a powerful force in the region, but it has been weakened by war and foreign encroachment. Will Oyo rise once more, or will its people be forever subjugated?"
PAN,Punjab,"The Sikh Empire is in a period of conquest, winning engagement after engagement. But what does the future hold for this empire?","The Punjab region has long been a hub for trade, culture, and science. With the coming of the British Raj, the region is now in danger of being swallowed up by foreign domination. Will the region be able to resist this new force or will it succumb?"
PAP,Rome,"Though the political power of the Catholic Church has waned over the centuries, the Pope still presides over the Papal States. Does faith still rule the hearts of men?","The city of Rome and its surrounding area has been a powerful force throughout history. But as the modern world begins to take shape, is the Eternal City facing a new era of decline?"
PAR,Parma,"The Congress of Vienna confirmed the Rule of Napoleon's second wife Marie Louise over the Duchy until her death. In this time of nationalism and upheaval, will she be able to hold on to her lands?","The small duchy of Parma has long been under the control of the powerful Farnese family. However, the newly-unified Kingdom of Italy is now beginning to cast its ambitions upon the region. Will Parma find itself subsumed by the new kingdom or will its independence endure?"
PAT,Mapuche,,"The Mapuche people have long defended their homeland of modern Chile and Argentina against foreign incursions. But now that these nations have achieved independence, what will be the fate of the Mapuche and their ancient ways?"
PER,Persia,Persia is still reeling from the loss of several territories to Imperial Russia at the beginning of the century. Will they be able to come back and reclaim its place as a great power?,"The Persian Empire has been a cultural cornerstone of the region for centuries, but modern influences from the Russian Empire and the British Raj are beginning to make their presence felt. Will Persia remain a bastion of the old world or will it too join the modern age?"
PEU,Peru,"Peru and Bolivia are close to the creation of a new confederation, but can the two countries come to an agreement? Will such a union be formed?","After centuries of Spanish rule, Peru has finally won its independence. However, with the region now rife with political infighting, can this new nation find a way to stability and prosperity?"
PHI,Philippines,,"The archipelago of the Philippines has long been a strategic hub for the competing European powers. Now, with US forces having defeated Spanish forces in the Spanish-American War, what will be the fate of the islands?"
PLC,Poland-Lithuania,,"The Polish-Lithuanian Commonwealth once stretched across much of Eastern Europe, but centuries of wars and foreign conquest have reduced it to a mere shadow of its former glory. Can the battered nation rise again, or will its defeat be sealed forever?"
PLY,Tahiti,,"The Tahitians, who have long been isolated from the outside world, are now being encountered by explorers from Europe. What will be the fate of this island nation as foreigners begin to impose their own ways upon it?"
PNM,Panama,,"The isthmus of Panama has long been a strategic location for the passage of ships between the Atlantic and Pacific oceans. Now that a canal is being built to make travel even easier, will Panama become a major hub of international trade?"
POL,Poland,,"The Polish people have long had to suffer through occupation and domination by foreign powers. But now, with a newly-independent Poland in the making, can this nation reclaim its lost glory and rise again?"
POM,Pomerania,,"The region of Pomerania, located between Germany and Poland, has long been disputed between both countries. With the unification of Germany and the independence of Poland, will Pomerania finally find the peace it has been denied for so long?"
POR,Portugal,"It has been just two years since the end of the Portuguese Civil War and once again Queen Maria II sits the throne. Portuguese colonies stretch across the world. Now that the internal strife has been dealt with, what will the rest of the century bring?","Portugal is a nation with a long history, but its future is uncertain. As other European countries industrialize and modernize, can this small nation of seafarers survive in the rapidly changing world?"
PPU,Papua,,"The island of Papua was known as the Dutch East Indies until recently. Now that it is an independent nation, what path will it take in order to become a prosperous and powerful nation?"
PRG,Paraguay,,The country of Paraguay has for centuries been the subject of territorial disputes between its neighboring countries. Will it ever find peace or will it remain in a perpetual state of limbo?
PRU,Prussia,Prussia managed to gain large swathes of territory in the Napoleonic wars and has spent the last few years making startling reforms across the country. Will Prussia continue along this path and perhaps unite Germany?,"Prussia has long been a major power in Europe, but it is now struggling to remain relevant in a continent that is rapidly changing. Can Prussia find a way to remain influential or will it be pushed to the sidelines?"
PCO,Puerto Rico,,"Puerto Rico is an unincorporated territory of the United States, but the island is beginning to question its status as a colony. What does the future hold for this small island nation and its people?"
QUE,Quebec,"Once the colony of New France, Lower Canada has fallen under British rule. Tensions between the predominantly French population and the colonial government threaten to escalate in the near future, with little chance of peaceful resolution. Will Quebec win its freedom?","The people of Quebec have long been proud of their unique French-Canadian culture. With a growing demand for independence, will Quebec be able to carve out its own destiny?"
REB,Rebels,,"The forces of rebellion may be few, but they are fiercely determined to overthrow oppressive regimes across the globe. Will their courage and conviction be enough to bring lasting change?"
REV,Revolutionary,,"The winds of revolution are blowing across the continent, as countless people stand up to fight for their rights and freedom. Will history be kind to these brave souls or will their cause be destined to failure?"
ROM,Romania,,"Romania has long been a crossroads between East and West, but with the rise of nationalism in the region, can it remain a neutral power or will it be forced to side with one side or the other?"
RUS,Russia,"Tsar Nicholas I started his rule by crushing a revolt and now rules Russia in a vise-like grip. He espouses the doctrines of Orthodoxy, Autocracy and Nationality. Will this authoritarian Russia thrive in the 19th century or will a new, different Russia emerge?","Russia is a vast and powerful nation, but it is now facing a time of great uncertainty. Can Russia adapt to the changing times or will it remain a relic of a bygone era?"
RUT,Ruthenia,,"Ruthenia, once a powerful kingdom in Central Europe, has fallen on hard times over the centuries. Will it survive to once again become a major power on the continent, or will it remain a forgotten footnote in history?"
RWD,Rwanda,,"The Rwandan people have long been subject to foreign domination and conflict, but now stand poised to make their own destiny. Will they be able to unify and build a better future, or will Rwanda be forever mired in chaos? "
SAF,South Africa,"Originally a Dutch trading post, the Cape Colony has recently become a British Crown Colony with most of its former autonomy curtailed. Now, tensions are rising between the British crown and the Boer states to the north, while in the east, the power of the Zulu Empire is growing. How will the Cape Colony weather the struggles ahead?","In South Africa, the struggle between the Dutch-speaking Boers and the British colonists has reached a fever pitch. With both sides locked in a battle for control of the country, who will come out on top?"
SAR,Sardinia-Piedmont,"In Sardinia-Piedmont reactionary anti-French monarchs have led the country for the past thirty years, encouraging the return of the nobility and the church while disbanding the Napoleonic reforms. Will this trend continue? Or will a more liberal nation emerge?","After the disastrous defeat at the Battle of Novara, Sardinia-Piedmont is struggling to rebuild their shattered kingdom. Will the region be able to survive against the odds and rise again?"
SAX,Saxony,,"After being annexed to Prussia, Saxony is a shadow of its former self. Can it ever truly shake off its oppressors and reclaim its independence?"
SCA,Scandinavia,,"succumb to the new industrial age, or remain isolated and risk falling behind the rest of the world?"
SCH,Schleswig,,"With the Danish-German War of 1864, Schleswig has been torn between two empires. Can it ever find peace and autonomy, or will it be forever caught in the middle?"
SCN,Scania,,"After the Swedish-Danish War, Scania is free from foreign control — but at what cost? Can the region rally behind its new autonomy, or will it succumb to internal strife?"
SCO,Scotland,,"Following the Act of Union, Scotland scratches a living in the shadow of the English Empire. Can Scotland ever gain a voice of its own, or will it always be an afterthought?"
SDM,Sidamo,,"A land of warriors, Sidamo is determined to remain independent. But with the British Empire at its door, can they really hope to stay afloat?"
SEQ,Indian Territory,,"With the Indian Removal Act of 1830, the indigenous people of Indian Territory have been forcibly removed from their ancestral lands, leaving them to wander aimlessly. Can they survive the turmoil and reclaim their homes, or will they be lost to history?"
SER,Serbia,"Serbia has fought hard for its independence, and will surely have to continue its struggle to retain it. Wedged between great powers, will Serbia become the powder keg of Europe?","In 1804 the Serbian Revolution began, and since then Serbia has slowly been pushing back against the Ottoman Empire. But is the fight for freedom over, or will the Serbs continue their resistance?"
SGF,South German Federation,,"The South German Federation is a newly formed union of independent states. Can it stand strong against its powerful European neighbors, or will it crumble under the strain?"
SGU,Segou,,"Ancient and mysterious, Segou is an independent state in the heart of West Africa. But can this small nation remain its own, or will it be swallowed up by a larger empire?"
SHI,Shimla,,"In 1815 the British East India Company declared itself the ruler of Shimla, a small state in northern India. With the Indian Mutiny brewing in the south, can Shimla remain independent, or will it become yet another part of the British Empire?"
SHW,Shewa,,"After centuries of war with the Abyssinian Empire, the Shewa people are now in control of their own destiny. But can they survive on their own, or will they be pushed back into subjugation?"
SIA,Siam,Siam has established itself as the dominant regional power in South-East Asia under the Rattanakosin dynasty. But will Siam manage to reform its economy and society for the modern age?,"Sitting on the edge of Southeast Asia, the kingdom of Siam is a prosperous nation surrounded by powerful neighbors. As they tread the waters of international diplomacy, will they be able to maintain their independence?"
SIC,Two Sicilies,"Political repression of both liberals and Sicilian separatists is proving ineffective, with both movements moving underground and gaining supporters. What will the Two Sicilies look like after the situation inevitably comes to a head?","After the Neapolitan Revolution, the kingdom of Two Sicilies is a divided nation, with the north and south increasingly at odds. Can the kingdom be reunited and brought back together, or will it remain divided forever?"
SIK,Sikkim,,"the British and the Chinese. But can this tiny nation survive the rising tide of imperialism, or will it be swallowed up by the larger nations that surround it?"
SIL,Sierra Leone,,"remain under British rule, or take the dangerous plunge into independence?"
SIN,Sindh,,"As the British Empire expands in India, the small kingdom of Sindh finds itself caught in the crossfire. Can the Sindhis remain autonomous, or will they be forcefully incorporated into the ever-growing British Raj?"
SKH,Sakhalin,,"Long claimed by both Japan and Russia, Sakhalin remains in a state of limbo between two empires. Can this region ever hope to claim true independence, or will it become the site of an enduring dispute?"
SLO,Slovenia,,"As the Austro-Hungarian Empire weakens, Slovenia dreams of freedom. Can Slovenia throw off the shackles of foreign rule and become an independent nation?"
SLV,Slovakia,,"For centuries, Slovakia has been swallowed up by larger European nations. But with the recent fall of the Austro-Hungarian Empire, can the Slovaks finally find their voice, or will they remain a forgotten people?"
SNG,Sangu,,"The small, self-governed republic of Sangu is a beacon of hope in an otherwise dark corner of the world. But with instability rising across the region, can Sangu survive the storms ahead?"
SOK,Sokoto,"Under the banner of the Fulani Jihad, the Sokoto Caliphate is expanding rapidly. Can Sokoto unite West Africa and resist the Western powers?","With the fall of the Sokoto Empire, the region has been torn apart by war. In this chaos, can a new nation be born?"
SPA,Spain,"The young Queen Isabella rules a divided Spain, with liberal and conservative factions at each other's throats. Will the Queen be a mere puppet in this struggle, or will she take a more active role?","After centuries of war and bloodshed, the Spanish Empire is fracturing. Can the many provinces of Spain come together in unity, or is the nation doomed to destruction and civil war?"
SRR,Serer,,"After centuries of oppression, Serer is now an independent nation. But with the French Empire expanding across the continent, can the nation maintain its freedom?"
SSU,Susu,,"Straddling the empires of the British and French, Susu is a small African nation in a precarious position. Can they remain independent, or will they be swallowed up by the larger nations that surround them?"
SWE,Sweden,"After losing Finland and gaining Norway in a personal union, Sweden has begun the slow process of industrialization, while also becoming more liberal in some ways. What does the future of Sweden hold?","With the Industrial Revolution, Sweden is rapidly becoming a global power — but at what cost? Can it remain an independent nation, or will it become yet another pawn of the imperial powers?"
SWI,Switzerland,"The Congress of Vienna has recognized Switzerland as a neutral power, affording some degree of safety in the theatre of European politics. Will Switzerland preserve its neutrality, or strike a different path?","A neutral nation in the heart of Europe, Switzerland stands in stark contrast to its powerful neighbors. But is this neutrality truly enough to protect them in the volatile times ahead?"
TBI,Tibesti,,"Sitting in the Sahara Desert, the isolated kingdom of Tibesti is an oasis of tranquility in an otherwise chaotic world. But can it remain it own, or will it be consumed by the wars of its neighbors?"
TEX,Texas,The newly declared Republic of Texas fights a seemingly impossible war against its Mexican overlords. Will a miracle save the Lone Star State?,"After their independence, the people of Texas face an uncertain future — can they remain free, or will they be swallowed up once again by the United States?"
TGR,Tigray,Ethiopia is in the midst of the Age of Princes. The Emperor in Gondar has no effective power and local rulers divide the country between themselves. Will the empire ever be reunited?,"At the crossroads of East Africa, Tigray is a nation of many cultures and beliefs. Will it survive and thrive, or will it be swallowed up by a larger power?"
TIB,Tibet,"Tibet exists under the oppressive boot heel of the Qing Dynasty, can it perhaps extricate itself from these circumstances?","Despite numerous attempts by foreign powers to gain control of Tibet, the country has managed to maintain its independence for centuries. However, tensions between China and Tibet continue to mount, and with the increasing presence of foreign actors, the future of Tibet remains uncertain. "
TKE,Teke,,"The Teke tribe of Central Africa has long been a fierce independent force, successfully resisting the attempts of European nations to colonize their lands. But now, the Teke face a new threat - the powerful kingdom of Congo. Can the Teke continue to stand their ground and preserve their independence, or will they be swallowed up by a rising empire?"
TNG,Tonga,,"The Pacific Island nation of Tonga is a proud and independent country, with its own monarchy, language, and culture. But in recent years, the kingdom has come under pressure from its larger neighbors, seeking to impose their will and control. Is Tonga's independence at risk, or can the Tongan people fight for their freedom?"
TPG,Heavenly Kingdom,,"The Heavenly Kingdom of Taiping was a powerful and independent Chinese state that flourished in the 19th century. But in the face of intense imperial resistance, it was eventually destroyed. Will the legacy of the Heavenly Kingdom remain, or will it be forever forgotten?"
TPS,Toposa,,"The people of Toposa are no strangers to hardship and violence, having endured decades of conflict and displacement. Despite this, the Toposa remain a proud and independent people, fiercely protecting their way of life and their land. Will the Toposa continue to persevere, or will their independence be threatened by the larger powers that surround them?"
TRA,Travancore,,"The tiny kingdom of Travancore was a beacon of liberation and progress in 19th century India, with a strong women's movement and progressive social reforms. But with the rise of British Colonialism, can the legacy of this enlightened kingdom withstand the pressures of imperial rule?"
TRE,Trieste,,"The bustling port city of Trieste has been a crossroads of cultures since time immemorial. But tensions between Austria and Italy have put the city's future in doubt. Will Trieste remain a city of peace, or will it become a battleground in Europe's never-ending wars?"
TRI,Tripolitania,"Following a long period of de facto independence, Tripolitania has once again fallen under Ottoman rule. Will the Barbary Pirates sail again?","For centuries, the African nation of Tripolitania has been an oasis of freedom, free from oppressive regimes. But with the recent rise of Islamic fundamentalism and the threat of foreign intervention, will Tripolitania's independence be short-lived?"
TRK,Turkana,,"The nomadic Turkana people have been living in the deserts of East Africa for centuries, but now they find themselves in the midst of a regional conflict. Can the Turkana maintain their independence, or will they be swept up in a regional struggle for power?"
TRN,Transvaal,,"After decades of conflict, the Transvaal Republic achieved independence from the British, only to be annexed by the South African Republic a few years later. Is this new nation doomed to fall apart, or will it rise to become a strong and unified state?"
TRS,Transylvania,,"The small European nation of Transylvania has been at the center of numerous conflicts between Romania, Hungary, and Austria for centuries. With tensions between the countries on the rise, can Transylvania remain independent, or will it be swallowed up by the rising powers around it?"
TRZ,Trarza,,"In the western Sahara, the nomadic Trarza people have lived in relative peace, free from interference from the outside world. But with the rise of militant Islamic groups in the region, will the Trarza remain safe and independent, or will they be swallowed up by the new forces of chaos?"
TSW,Tswana,,"The Kingdom of Tswana has long been home to the Tswana people, a fiercely independent group who have maintained their independence despite centuries of conflict. But with the rise of South Africa, will the Tswana people be able to retain their freedom, or will they be subsumed by the stronger nation?"
TUA,Tuat,,"The Tuat people of North Africa have managed to maintain their independence despite centuries of foreign rule, but now they face an uncertain future as the French and Spanish empires battle for control of the region. Will the Tuat people be able to hold on to their independence, or will they be swallowed up by the rising imperial powers?"
TUN,Tunis,"After being forced to end its sponsorship of piratical raids, the Tunisian economy has taken a turn for the worse. Can the Bey restore prosperity?","Tunis, the vibrant capital of Tunisia, stands at a crossroads. The city is under the control of a powerful militarized government, yet there is still a sense of freedom and hope among the people. Will Tunis be able to maintain its independence, or will it fall to a foreign power?"
TUR,Turkey,"The Ottoman Empire has been embroiled in various wars through the beginning of the 19th century, and while some reforms have been attempted, more will be needed to prevent the decline of this empire.","For centuries, the Ottoman Empire was a powerful force in the Middle East, but with the rise of Arab nationalism, the Empire has been in decline. Can the Ottoman Empire rise again, or will it be subsumed by the new forces of change?"
TUS,Tuscany,"The unpopular Duke Leopoldo seeks to liberalize the Grand Duchy, but faces great opposition to his rule. How will Tuscany fare as liberalism and nationalism compete over the hearts and minds of Italians?","The grand duchy of Tuscany is surrounded by powerful neighbors and has been in a long period of decline. Will Tuscany be able to defend its independence, or will it be swallowed up by the powerful forces at work around it?"
UBD,United Baltic Provinces,,"The United Baltic Provinces achieved independence from the Russian Empire in 1918, but now it finds itself surrounded by nations with expansionist tendencies. Will the people of the United Baltic Provinces be able to keep their independence, or will they be consumed by the larger forces that surround them?"
UCA,Central America,The Federal Republic consists of provinces which would largely prefer to be independent. Can Central America hold together?,"For centuries Central America has been an independent and vibrant region, with its own unique culture and history. But with the recent rise of the United States, will Central America remain autonomous and independent, or will it be swept up into an American-dominated region?"
UKR,Ukraine,,"The Ukraine has been a nation of oscillating fortunes for centuries. With the fall of the Soviet Union and the rise of a new era, will the Ukrainian people be able to take control of their destiny and protect their independence, or will they find themselves overwhelmed by external forces?"
ULS,Ulster,,"After many centuries of occupation and suppression, the people of Ulster won their independence from the British Empire in 1922. But with increasing sectarian violence and the looming threat of violence from the Irish Republic, will Ulster's independence be short lived?"
URU,Uruguay,,"The tiny nation of Uruguay achieved its independence from imperial Spain in the 19th century, and since then it has been a fiercely independent and progressive country, with a strong emphasis on education, democracy, and human rights. But with the rise of authoritarianism in the region, will Uruguay be able to maintain its independence, or will it be swallowed up by the larger powers of the region?"
USA,America,"The United States of America has asserted the Americas' right to independence from European powers. However, the nation is also in the process of forcibly removing thousands of Native Americans from their homelands, and an intense debate rages between the states on the subject of slavery. What will the future for the United States look like?","In the wake of its War of Independence, the United States of America was born as a nation built on principles of freedom and democracy. But with the rise of partisan politics and the looming threat of civil war, can the United States remain independent and unified, or will it succumb to its internal divisions?"
VEN,Venice,,"For centuries, Venice was an independent city-state, a powerful symbol of freedom and mercantile success. But in the wake of the Industrial Revolution, can Venice maintain its independence, or will it be swallowed up by the larger forces of Europe?"
VIE,Vientiane,,"The Kingdom of Vientiane is a small nation surrounded by more powerful neighbors. But with a strong commitment to traditional culture and a newfound spirit of independence, can Vientiane stand up to the larger forces that surround it, or will it be swallowed up?"
VNT,Vanuatu,,"The independent nation of Vanuatu was born out of a long struggle for independence from the French and British Empires. But with the rising threat of Chinese expansion and the growing presence of international corporations, will Vanuatu be able to maintain its independence, or will it succumb to the forces of globalization?"
VNZ,Venezuela,"Now independent from both Spain and Gran Colombia, Venezuela must carve out its own destiny. Can a stable government be formed, or is Venezuela doomed to be ruled by a succession of caudillos?","After a long and turbulent history, Venezuela emerged as an independent nation in the 19th century. But with a rising authoritarian regime and the looming threats of foreign interference, will Venezuela be able to hold on to its independence and autonomy, or will it be swallowed up by the larger forces around it?"
WAD,Wadai,,"The Wadai Kingdom has managed to maintain its independence for centuries despite being surrounded by larger and more powerful neighbors. But with the rise of Islamic extremism in the region, can the Wadai people remain independent, or will their independence be threatened by the growing violence?"
WAL,Wallachia,"Calls for Romanian unification and political independence complicate regional politics, as both Russia and the Ottomans have an interest in enforcing the status quo. Can Romania win its freedom?","The Principality of Wallachia has been a distinct nation for centuries, but now it finds itself surrounded by powerful empires. With increasing tensions in the region, will Wallachia be able to maintain its independence, or will it succumb to imperial ambitions?"
WBL,Griqualand,,"The people of Griqualand West have been living in relative peace and prosperity for centuries, but now they face a new struggle as the British colonial government seeks to annex their lands. Can the Griqua people retain their independence, or will they be subsumed by the expanding British Empire?"
WEI,Saxe-Weimar,,"The Grand Duchy of Saxe-Weimar has been an independent nation since the early 19th century. But with the rise of Prussian power, can the state maintain its independence, or will it be swallowed up by a larger and more powerful empire?"
WES,Westphalia,,"The Congress of Vienna was an attempt to bring peace to Europe, and Westphalia was at the center of the negotiations. Can a lasting peace be achieved, or will the tensions in this region soon rise again?"
WIN,West Indies,,"The Caribbean is a vibrant place, with its diverse mix of cultures, religions, and economies. Yet the legacy of colonial oppression persists. Will this region ever find true freedom and unity?"
WLG,Welega,,The region of Welega is in the midst of a fierce struggle for power between traditional leaders and colonial forces. Who will ultimately emerge victorious and control this region?
WLL,Wallonia,,Wallonia is a small nation surrounded by powerful European powers. Will it be able to maintain its independence and sovereignty amidst the changing geopolitical landscape of the early 19th century?
WLO,Wello,,"The kingdom of Wello is an ancient one, with a long history of independence and resistance to foreign rule. But the forces of colonialism are on the march. Can Wello fight back and protect its own?"
WLS,Wales,,"Wales is a proud nation, with centuries of tradition and culture. However, economic uncertainty and the threat of British domination hangs over the Welsh people. How will they make their voices heard in the face of this overwhelming pressure?"
WSG,Warsangali,,The powerful sultanate of Warsangali stands as a formidable force in the Horn of Africa. But will its independence last in the face of European encroachment and increasing internal strife?
WUR,Württemberg,,"The kingdom of Württemberg is among the strongest of the German states, but the specter of French domination looms over it. Can it resist the powerful influence of Napoleon's France?"
XIN,Uyghuristan,,The Uyghur people of Central Asia have a proud history of independence and struggle against foreign rule. But the 19th century is a time of upheaval and change. How will the Uyghur people fare during this tumultuous time?
YEM,Yemen,,"Yemen is a land of many cultures and competing interests, yet it has remained relatively peaceful and prosperous for centuries. Can this fragile balance of power be maintained in the face of growing external threats?"
MAH,Mahra,,"The Mahra Sultanate is a powerful regional force, but its hold on power is challenged by the expanding imperial ambitions of Britain and France. Will the Mahra people remain independent, or fall under foreign control?"
KAT,Kathiri,,The small kingdom of Kathiri has managed to remain independent despite being surrounded by powerful and hostile neighbors. Can it remain independent and protect its ancient traditions?
ZAI,Azal,,The Arab tribes of Azal are renowned for their ferocity and self-sufficiency. Will they be able to stand up to the growing influence of the Ottoman Empire in the region?
LAH,Lahej,,"The ancient city of Lahej, located on the southern coast of the Arabian peninsula, is a vital trading port. But who will ultimately control this strategically important location?"
JAB,Jabal Shammar,,"The powerful kingdom of Jabal Shammar is a bulwark against the encroaching European powers. But can it maintain its independence, or will it fall under the sway of a foreign ruler?"
BHN,Bahrain,,"Bahrain is a small nation situated between powerful neighbors, but it has managed to remain independent and prosperous. Can it continue to do so in the face of external pressure and internal strife?"
YKA,Yaka,,"The kingdom of Yaka is an important trading partner in the region, but it is surrounded by powerful rivals. Can it survive in this hostile environment and retain its autonomy?"
YUG,Yugoslavia,,"After centuries of foreign rule, the region of Yugoslavia is on the brink of independence. But the nationalist forces of the region are already at odds with each other. Will the people of Yugoslavia ever be united?"
ZAN,Zanzibar,,"The powerful trading nation of Zanzibar has long been a center of commerce and diplomacy. But with the encroachment of European imperialism, will the independence of this nation stay intact?"
ZND,Azande,,"The Azande people of central Africa have a proud and ancient culture, but are increasingly coming under pressure from European colonizers. Will they be able to maintain their traditions and autonomy?"
ZUL,Zulu,,"The Zulu nation is renowned for its ferocity and courage, but will it be able to fend off the growing power of the British Empire?"
SMI,Sapmi,,The Indigenous people of Sapmi in northern Scandinavia have long resisted foreign rule and maintained their unique culture. But can they continue to do so in the face of changing geopolitical dynamics?
MLT,Malta,,Malta is a strategically important island nation in the Mediterranean. But can it remain independent in the face of growing European influence?
ULR,Uluru,,"Uluru is an ancient sacred site of great importance to Aboriginal Australians. But with the spread of European settlement, will this sacred place be able to stay protected?"
MCO,Michoacán,,"Michoacán is a vibrant, diverse region with a long history of indigenous cultures. But the forces of colonization are arriving in the region, threatening to disrupt the peace and prosperity of its inhabitants."
TWT,Tawantinsuyu,,"The ancient Incan Empire of Tawantinsuyu is a powerful and prosperous nation, but its control of the region is threatened by the growing power of the Spanish Empire. Can it withstand the onslaught of foreign invaders?"
BSS,Bassa,,"The kingdom of Bassa is an ancient one, but it is struggling against the forces of external influence. Will it be able to maintain its independence, or will it succumb to foreign rule?"
TIR,Tiris,,"The Tuareg people of Tiris are a proud and independent tribe, but will they be able to protect their way of life in the face of growing encroachment by the French colonial forces?"
KSS,Kissi,,"The Kissi people of West Africa have long resisted foreign rule and maintained their traditions. But as the forces of civilization continue to spread, will they be able to remain independent and autonomous?"
GAO,Gao,,"Gao was once the center of a powerful kingdom, but it is now threatened by the encroachment of foreign forces. Will it be able to maintain its independence and protect its traditional culture?"
TIV,Tivland,,"The Tiv people of West Africa have been divided for centuries, but in the face of growing external pressures, will they be able to unite and fight for their freedom?"
SRA,Sara,,"Slavery has been abolished in the Sara region, but people are still struggling to free themselves from poverty and political unrest. Will the people find a way to a brighter future?"
EQU,Equatoria,,"The recently-formed Equatorian Republic is in its infancy, but faces strong opposition from hostile neighbors. Can the people of Equatoria carve out a secure and prosperous future for themselves?"
BJA,Beja,,"The Beja people have endured centuries of oppression from various regional powers, but a new dawn is on the horizon. Can the Beja people finally rise up and reclaim their ancestral lands?"
NBA,Nuba,,"Nuba has long been the target of oppressive regimes, but the Nuba people still fight for freedom with their own unique culture and traditions. Can Nuba escape the clutches of its oppressors? "
SUD,Sudan,,The slave trade is still rampant in the Sudan and the indigenous people are in danger of being wiped out. Can the people of Sudan finally secure their freedom and create a better future?
SKM,Sukuma,,"The Sukuma people have been living in relative peace and stability, but that peace is now threatened by foreign powers. Can the Sukuma fight off these external forces and maintain their independence?"
CHW,Chewa,,"The Chewa people have long been persecuted by colonial powers, but they still cling to their culture and traditions. Can the Chewa people resist and survive the onslaught?"
LMW,Lomwe,,The Lomwe people are facing increasing discrimination and a lack of opportunities in a changing world. Will the Lomwe be able to secure a better future for themselves and their descendants?
MKU,Makua,,"The Makua people are struggling against the forces of colonialism, but are determined to preserve their traditions and culture. Will the Makua be able to protect their way of life in the face of adversity?"
SNA,Sena,,The Sena people are seeking to escape the oppressive system of slavery that has plagued their land for centuries. Can the Sena find a way to break free from their bondage and achieve a better life?
BTG,Batonga,,"The Batonga people have faced discrimination for generations, but are determined to fight for their rights and freedom. Will the Batonga be able to prevail and secure a better future for themselves and their descendants?"
XHO,Xhosa,,"The Xhosa people are standing at a crossroads, with their land being threatened by British colonialism. Can they fight back and secure their homeland, or will they succumb to the imperial onslaught?"
UYA,Uyao,,"The Uyao people have been living in relative peace, but that peace is being threatened by foreign powers. Can the Uyao protect their sovereignty and continue to prosper?"
PRM,Perm,,"The Perm people are at a crossroads, with a growing population and unstoppable industrialization threatening to disrupt their traditional way of life. Will the Perm people be able to hold on to their culture and traditions in the face of change?"
HZJ,Hazarajat,,"Despite a long history of power struggles, the Hazarajat people are now united and determined to protect their lands against foreign powers. Can they maintain their autonomy and safeguard their own destiny?"
TRC,Turkmenia,,"The Turkmens are struggling to protect their independence against the growing Russian Empire. Will they be able to keep their independence, or will they succumb to the pressure?"
SIB,Siberia,,"Siberia is a vast, hostile land, with many of its native peoples struggling to survive in the face of an unyielding climate and increasing economic hardship. Can the Siberians manage to protect their way of life and secure a better future?"
YAK,Yakutia,,"The Yakut people are determined to remain independent from their Russian neighbours, but their small population means they are at a disadvantage. Can the Yakuts find a way to survive and preserve their culture?"
ASM,Assam,,"The Assamese people are facing increasing pressure from the British Raj, with many of their traditional customs being dismantled and replaced with British laws. Can the Assamese retain their culture and identity against the odds?"
MNP,Manipur,,"The Manipuri people are under threat from the forces of colonialism, with their traditional lands being occupied by outsiders. Will the Manipuri be able to resist and retain their ancestral lands?"
TOB,Toba,,"The Toba people have lived in relative isolation for centuries, but now face the threat of being overrun by colonial powers. Can the Toba retain their independence and safeguard their way of life?"
KLT,Kalimantan,,"The indigenous people of Kalimantan are facing increasing pressure from the Dutch, who are determined to acquire control of the region. Will the people be able to resist the Dutch and protect their homeland?"
HTH,Hathawaddy,,The Hathawaddy people have been living under the oppressive rule of the Burmese for generations. Can the Hathawaddy finally break free and gain independence?
KRN,Karen,,The Karen people are struggling to survive in the face of hostile immigration policies from the British. Can the Karen protect their culture and way of life in the face of adversity?
KHM,Khmu,,"The Khmu people are facing increasing pressure from the French, who are determined to gain control of their ancestral lands. Can the Khmu resist and preserve their culture and traditions?"
KHN,Kachin,,"The Kachin people are determined to withstand the foreign forces pushing against them, but are at a disadvantage due to their small population. Can the Kachin find a way to protect their independence and safeguard their lands? "
AIN,Ainu Mosir,,"Despite centuries of subjugation, the Ainu Mosir people are still determined to protect their culture and traditions. Can they withstand the onslaught of colonial forces and preserve their way of life?"
EZO,Ezo,,"The Ezo people are determined to protect their independence, despite the many attempts to colonize their islands. Can the Ezo people fend off the foreign invaders and protect their homeland?"
QIA,Qian,,The Qian people are an ancient culture that have been struggling against the forces of imperialism for centuries. Will the Qian be able to protect their traditional customs in the face of overwhelming pressure?
FRS,Formosa,,"The Chinese are determined to take control of Formosa, but many of the native people are fighting for their freedom. Can the Formosans resist the Chinese and protect their homeland?"
YUN,Yunnan,,"Tyrannical rule in Yunnan has resulted in a massive population exodus, fleeing to the distant lands of their southern neighbors. As the Qing Dynasty begins to crumble, can Yunnanse people establish a new, independent nation in its place?"
YUE,Yue,,"The Yue people of East Asia have recently been unified under the banner of new rulers, seeking to bring an end to centuries of war and chaos. But can these fragile new alliances hold in the face of adversity, or will Yue soon be engulfed in yet another conflict?"
OAX,Oaxaca,,"The people of Oaxaca have always been fiercely proud of their ancient traditions and culture, but now the coming of the Spanish threatens to erode it away. Can Oaxacan traditions survive the onslaught of the 21st century?"
AYM,Aymara,,"Centuries of exploitation have taken their toll on the Aymara people of the Andes, but now a growing tide of resistance is rising up to fight for their freedom. Can Aymara win a lasting victory and reclaim their homeland?"
WYU,Wayuu,,The Wayuu people of Colombia are facing the imminent threat of extinction as the encroachment of wealthy landowners results in land loss. Can the Wayuu regain their land rights and secure their future?
TPI,Tupinamba,,"The Tupinamba people of Brazil are struggling to defend both their identity and their land from the expanding Portuguese forces. Will they succeed in their fight against the oppressors, or will Tupinamba be forgotten in time?"
PUE,Pueblo,,"As the Spanish Empire expands into the Americas, the Pueblo people are determined to preserve their ancient traditions. Will their faith and resilience be enough to withstand the colonial onslaught, or will the Pueblo be erased from history?"
NNV,Nunavut,,"The Inuit of Nunavut have long been striving for their own self-determination and autonomy, but harsh winter weather and a hostile environment has made it difficult to survive. Will Nunavut become a sovereign state, or will the Inuit be forced to remain in the shadows of their oppressors?"
NVL,Navajoland,,"The Navajos of Arizona have had their ancestral lands taken away from them, driven out of their homelands and forced onto reservations. Will the Navajos be able to reclaim their traditional lands and restore their way of life?"
ATB,Athabaska,,"The Athabaskans of Canada have a proud history, but now the coming of the Hudson's Bay Company threatens their culture and sovereignty. Will the Athabaskans be able to stand their ground and protect their traditions, or will they be assimilated against their will?"
CSC,Cascadia,,"The great forests of the Pacific Northwest have long been home to the nations of Cascadia. But with the encroachment of European settlers and the destruction of the forests, can Cascadia survive?"
IRO,Haudenosaunee,,"The Six Nations of the Haudenosaunee Confederacy is one of the oldest and strongest Indigenous nations in the world. But now their sovereignty and way of life is being threatened from both sides. Will the Haudenosaunee be able to preserve their culture and traditions, or will they be forced to adapt to the modern world?"
MSC,Muscogee,,"The Muscogee Nation of the southeast United States is facing an existential threat as their lands are swallowed up by the expanding United States. Will the Muscogee be able to retain their independence, or will they be forced to submit to their new overlords?"
UTE,Ute,,"The Ute people of Utah have been struggling to protect their lands from the encroachment of the federal government. Can the Ute defend their ancestral homelands, or will they be forced to surrender to their oppressors?"
APC,Apache,,"The Apache people of the southwest United States have been fighting for their independence since the first European settlers invaded their lands. Can the Apache nation reclaim their freedom and restore their ancient culture, or will they be forever subjugated?"
CCM,O'odham Country,,"The O'odham people of southern Arizona have for centuries been fighting to keep their ancestral lands from being taken away from them. Will the O'odham's struggle be successful, or will their lands become yet another casualty of colonization?"
ORN,Orinoco,,The Orinoco River marks the traditional lands of the Guarani people of South America. But how will they fare against the encroaching European settlers that flock to the river's shores?
SRB,Sorbia,,"The Sorbian people of Germany are fighting to preserve their language and culture from the encroaching German forces. Can the Sorbi survive this onslaught, or will their culture be lost to the winds of change?"
YUC,Yucatán,,"The Yucatán peninsula of Mexico has long been a home of vibrant Indigenous culture and tradition, but now their lands are being taken away by wealthy foreign invaders. Will the Yucatecans be able to reclaim their ancestral homelands, or will their culture be forgotten?"
RIO,Río Grande,,"The Rio Grande marks the border between Mexico and the United States, but it is also home to many Indigenous peoples. Will these people be able to defend their way of life and protect their ancestral lands, or will they be swallowed up by the ever-expanding American empire?"
PNI,Piratini,"The newly created state of Piratini, boldly declares its independence against Brazil, but how long can the fledgling nation last?","The Piratini River marks the traditional lands of the Guarani people of Brazil. But in recent years, the river has seen strife as powerful forces fight for control of it. Will the Guarani be able to protect their lands, or will they be swept away by the tides of conflict?"
CEY,Ceylon,,"The island of Ceylon has been dominated by countless foreign nations throughout its history. But as Ceylon's independence movement gathers strength, can the nation stand up to its oppressors and reclaim its autonomy?"
HBC,Hudson Bay Company,"The Hudson Bay Company is prepared to protect its monopoly on the fur trade by any means necessary. Agreements are made and broken with the First Nations as the Company sees fit, with little regard to any motive but profit. Will ruthlessness be enough to safeguard the Company?","The Hudson's Bay Company of Canada has been a powerful force in the region for centuries. But now the company faces a growing opposition, with Indigenous nations and settlers alike fighting for their rights and freedoms. Can the company withstand the growing pressure?"
ONT,Ontario,"Emboldened by rising tensions in Lower Canada, the people of Upper Canada prepare to resist the colonial government. Will Ontario win its freedom?","Ontario is a center of industry in Canada, but the province's Indigenous people are fighting for their rights and autonomy. Can the First Nations protect their land from exploitation, or will they be forced to compromise?"
NBS,New Brunswick,"The colony of New Brunswick is establishing a thriving shipbuilding industry, with colonists arriving from Scotland and Ireland to work with timber. Will New Brunswick lead a united Canada?","New Brunswick has seen a long history of colonization and interference from both Britain and France. But can the province find a way to reconcile its past and move forward in peace, or will it be forever stuck in a cycle of violence?"
NSW,New South Wales,"In its transition from penal colony to Crown Colony, New South Wales has seen its territory reduced as the other provinces gained their own administrations. What does the future hold for Australia?","The British have been in control of New South Wales for centuries, but the Indigenous people of the area are fighting back. Will the First Nations be able to reclaim their autonomy and restore their traditional ways of life, or will they be forever subjugated?"
WAS,Western Australia,"The Swan River colonists impose upon the traditional lands of the aboriginal people, culminating in the Pinjarra massacre only two years ago. How will the colony settle this conflict?","As the west coast of Australia is slowly colonized, the Indigenous population has been struggling to preserve their land and culture from exploitation. Will the Aboriginal people be able to protect their homelands, or will they be swallowed up by the colonial tide?"
SAS,South Australia,"South Australia was granted its own administration only two years ago, separating from New South Wales. What does the future hold for Australia?","South Australia has seen a long history of struggle between Indigenous people and settlers. Will the original inhabitants be able to restore their autonomy and reclaim their land, or will they remain subjugated?"
UNT,United Tribes,"The United Tribes have declared their sovereign independence, though in truth they are at the mercy of the British Empire. Can the British be trusted to respect their treaties with the Maori?","The United Tribes of New Zealand were formed in 1834 to unite the various Indigenous nations of the area in a common effort to protect their rights and autonomy. Will the United Tribes be able to maintain their sovereignty and independence, or will they be swallowed up by the British Empire?"
NNG,Noongar,,"The Noongar people of Western Australia have been fighting for their rights for centuries. Will the Noongar be able to reclaim their ancestral lands and restore their culture, or will they be forever relegated to the fringes of society?"
GML,Gamilaraay,,"The first attempts at colonization of this ancient land had a devastating effect on the Gamilaraay people and their traditional way of life. Will the colonial forces prevail, or will the Gamilaraay rise up and reclaim their ancestral lands?"
TAS,Tasmania,Van Diemen's Land is the primary penal colony in British Australia. What does the future hold for this colony of convicts?,"Along the southern coast of Australia, the island of Tasmania is home to a number of Indigenous peoples. Will the British be successful in assimilating the locals, or will the island remain a place of refuge for those who oppose colonization?"
ZIM,Zimbabwe,,"The rise of the great Shona leader Mzilikazi to power brought with it a period of civil war. With the reestablishment of Zimbabwe, will the peace last, or will the strife of the past resurface?"
BLH,Baluchistan,,"Straddling the borders of Iran, Pakistan and Afghanistan, Baluchistan is an area of great cultural and political complexity. Will it remain divided or will the inhabitants find a way to unite against outside forces?"
MAL,Mali,,"Mali is the birthplace of the legendary African empires of Ghana, Mali and Songhai. Can they, once again, stand up to the forces of colonialism and create a just and prosperous society?"
OCC,Occitania,,"The language and culture of Occitania were once widely spread across southwest Europe, but are now threatened by the encroachment of French imperialism. Can the Occitanian people rally together and protect their culture?"
TUV,Tuva,,"This small republic of nomadic horsemen has been historically ignored by Russia and China. Will Tuva's independence be respected and maintained, or will it become another pawn in the power struggles of the great empires?"
COR,Corsica,,"Corsica has long been a crossroads between the European mainland and North Africa. Will this small island remain independent and prosperous, or will it succumb to the manipulations of its overseers?"
TNS,Tungus,,"Remote and isolated, the Tungus have been able to retain their traditional lifestyle and remain largely untouched by the outside world. Can they keep the encroaching civilizations at bay and remain self-sufficient?"
FER,Kamchatka,,"Kamchatka is the home of the Chukchi people, a predominantly hunter-gatherer culture that has survived the ravages of colonialism. Will they be able to protect their land and traditions from exploitation?"
IUS,Kazan,,"The Tartar city of Kazan was once the capital of the Khanate of Kazan, an independent Islamic state. However, the Russian Empire has expanded into the region and threatens the autonomy of the Tartar people. Will the Tartars prevail, or will their independence be overthrown?"
NCA,Mountain Republic,,"In the Himalayas, the mountain republic of Bhutan has managed to maintain its independence and traditional way of life despite its turbulent neighbours. Will this unique culture and nation survive the test of time?"
DON,Don Cossack Host,,"The Don Cossacks have been a nation of independent, fierce warriors since their inception. Can they continue to defy the might of the Russian Empire and keep their autonomy?"
SYR,Syria,,"In the Ottoman Empire, Syria is a land of cultural and religious diversity. Will the locals be able to protect their traditions and beliefs, or will the forces of external forces triumph?"
EOT,Emirate of Transjordan,,"With both the Ottoman and British Empires vying for control of the Middle East, Transjordan has become a strategic buffer between the two powers. Will this small nation survive, or will it be swallowed up by its larger neighbours?"
LEB,Lebanon,,"Lebanon is a cauldron of religious and political tensions between the Druze, Maronites and Sunnis. Will the nation be able to reconcile its differences and form a lasting peace, or will it descend into chaos?"
GNG,Da Cheng,,"Deep in the heart of China, the city of Da Cheng is a nexus of trade and culture. As the Qing Dynasty enters its twilight years, will Da Cheng become the center of resistance against colonial rule?"
HNA,Hunan,,"Hunan is one of the most populous provinces in China and has a history of resistance against foreign influences. In an era of unrest, could Hunan be the spark of revolution?"
AHU,Anhui,,Close to the eastern coast of China lies the province of Anhui. This area was once home to the Taiping Rebellion and could be ripe for another uprising against oppressive rule.
ZHI,Zhili,,"The province of Zhili has been the site of numerous rebellions against the Qing Dynasty. With a new wave of discontent in the air, will the people of Zhili take the opportunity to break free from their oppressors?"
SHN,Shanxi,,"As the Chinese Revolution sweeps through the country, the province of Shanxi is seen as a potential centre of opposition to the Qing Dynasty. Can the people of Shanxi unite to overthrow their oppressors?"
GUI,Guizhou,,"This province in southern China has long been the home of various minority groups, including the Miao and Yi. Will these peoples be able to protect their traditional way of life from the encroaching forces of modernization?"
SIH,Sichuan,,The remote province of Sichuan is full of natural beauty and has long been a refuge for those seeking peace and a simpler way of life. Will this land of contrast survive the threat of colonization?
SHA,Shandong,,"The port city of Shandong is a crucial link between the seas of East Asia and the rest of the world. Will it be able to remain independent and prosper, or will it succumb to the ambitions of foreign powers?"
XIB,Xibei,,"The northwest region of China has long been a place of nomadic tribes and independent spirit. Will the Xibei region remain untouched by outside influences, or will it become another player in the great power struggles?"
MUI,Muisca,,"Before the arrival of the Spanish conquistadors, the Muisca tribe was well-established in what is now Colombia. Will the Muisca people be able to keep their culture alive and remain independent, or will they succumb to foreign rule?"
ALT,Los Altos,,"In the heart of Guatemala lies the former nation of Los Altos, once a haven for Mayan peoples and cultures. But with the arrival of the Spanish came new structures and oppressions. Will the people of Los Altos be able to keep their culture and traditions alive?"
AFS,Free State,,The Boer Republics in South Africa were some of the last truly independent nations in the region. Can they survive the onslaught of the British Empire and maintain their autonomy?
GNI,Guarani,,The nomadic people of the Guarani were among the first to oppose colonization in South America. Can they use their knowledge of the land and their fighting spirit to secure freedom?
SAH,Sahrawi,,"The Western Sahara has long been a battleground between Morocco and the Sahrawi people. Will the Sahrawi people be able to reclaim their ancestral home, or will they be blocked by their oppressors?"
DEI,Dutch East Indies,,The Dutch East Indies are in a state of revolt. The influence of European imperialism has sparked feelings of resentment and the people of the islands seek to reclaim their independence. Will they be successful?
ARP,Arapaho,,"The Arapaho were a nomadic people living on the plains of the American continent. With the arrival of European settlers, their way of life is under threat. Will the Arapaho be able to maintain their way of life, or will it be forever changed?"
PWN,Pawnee,,"The Pawnee are a powerful tribe located in the American Midwest. They have managed to survive the onslaught of European settlers, but will they be able to withstand the new threat posed by industrialisation?"
BLF,Niitsitapi,,"The Niitsitapi, or Blackfoot, are a powerful nation located in what is now western Canada and the United States. They are determined to resist the onslaught of settlers, but will they be successful?"
TRH,Turkestan,,"The Khanate of Turkestan is a powerful region located between Asia and the Middle East. It is largely autonomous, but the region is now under threat from European empires. Will Turkestan be able to keep its independence?"
UOM,Michigan,,"The American state of Michigan is a relatively new settlement, with its first major town founded only a few years ago. With the expansion of the American frontier, it is an increasingly important region. What does the future hold for Michigan?"
SAK,Siak,,"The Sultanate of Siak is a powerful nation located in the Malay Peninsula. Despite the arrival of Europeans, the Siak remain independent and powerful. Will the Siak be able to maintain their independence?"
PON,Pontianak,,The Sultanate of Pontianak is an ancient kingdom located in western Borneo. It has long been a powerful force in the area and is determined to remain independent. Will the Sultanate be able to withstand the onslaught of European imperialism?
SMB,Sambas,,"The Sultanate of Sambas is a powerful nation located in western Borneo. It has long stood as an independent nation, but with the arrival of outsiders, its future is uncertain. Will the people of Sambas be able to remain free?"
JMB,Jambi,,The Sultanate of Jambi is a powerful nation located in the Malay Peninsula. It is determined to remain independent despite the presence of European empires. Can the Sultanate continue to remain independent in the face of foreign aggression?
YOG,Yogyakarta,,"The Sultanate of Yogyakarta is located in central Java. With the spread of outside influence, its independence is being tested. Will the Sultanate remain a powerful independent nation?"
BTN,Buton,,"The Sultanate of Buton is a powerful nation located in the Banda Sea, off the coast of Sulawesi. It is a fiercely independent nation and determined to remain that way. Will the people of Buton be able to hold off the forces of imperialism?"
SEL,Selangor,,The Sultanate of Selangor is located in the Malay Peninsula. It is an important trading port and is determined to remain independent in the face of foreign powers. Will the Sultanate be able to hold off the forces of imperialism?
PRK,Perak,,The Sultanate of Perak is a powerful nation located in the Malay Peninsula. It is determined to remain independent in the face of overseas powers. Will the Sultanate be able to resist any incursions?
SRK,Surakarta,,The kingdom of Surakarta is a powerful nation located in central Java. It has long been a beacon of stability and power in the region and is determined to remain independent. Will Surakarta be able to resist the forces of imperialism?
SLW,Sulawesi,,The Sultanate of Sulawesi is a powerful nation located on the island of Sulawesi. It is determined to remain independent despite the threat of outside powers. Will the Sultanate be able to remain an independent nation?
TID,Tidore,,"The Sultanate of Tidore is an ancient kingdom located in the Moluccas. It is determined to remain independent, despite the presence of foreign powers. Will the Sultanate be able to remain free?"
STG,Sintang,,"The Sultanate of Sintang is a powerful nation located in the Barito River basin of Borneo. It is determined to remain independent, despite the presence of foreign powers. Will the Sultanate be able to remain free?"
BNJ,Banjar,,The Sultanate of Banjar is a powerful nation located in western Borneo. It is determined to resist the onslaught of European empires. Can the Sultanate maintain its independence?
SUL,Sulu,,"The Sultanate of Sulu is a powerful nation located in the Sulu Sea, off the coast of Mindanao. It is determined to retain its independence, despite the presence of foreign powers. Will the Sultanate be able to remain free?"
THL,Tehuelche,,"The Tehuelche are a nomadic people living on the plains of the Patagonia region. With the arrival of European settlers, their way of life is under threat. Will the Tehuelche be able to maintain their way of life, or will it be forever changed?"
SLK,Selk'nam,,"The Selk'nam is an indigenous nation on the Tierra del Fuego islands. They are determined to preserve their traditional, nomadic way of life, but are they strong enough to fend off the forces of colonization?"
NVS,Nova Scotia,,"Nova Scotia is an important port located at the entrance to the Atlantic Ocean. With the influx of settlers, the region is poised to become an important trading hub. What will the future hold for Nova Scotia?"
SMS,Samos,,The island of Samos is a strategically important area for the empires of Europe. It is now under dispute by both French and British forces. What will the future hold for this island?
CHC,Chechnya,,"The Chechens are a fiercely independent people located in the Northern Caucasus. They are determined to resist the onslaught of Russian imperialists, but can they hold their own?"
CIR,Circassia,,"Circassia is an important region of the Northern Caucasus, home to many independent nations. With the rise of the Russian Empire, their independence is under threat. Will the Circassians be able to maintain their independence?"
MGD,Maguindanao,,"The Maguindanao Sultanate is a powerful force located in the Mindanao region of the Philippines. They are determined to remain independent, despite the constant pressure from Spanish colonialists. Will the Sultanate be able to resist the encroachment of foreign powers?"
ASS,Assyria,,"The ancient nation of Assyria is now in the hands of the British Empire. With the fall of this empire, what does the future hold for the people of Assyria?"
CTF,Council of Three Fires,,"The Council of Three Fires is a powerful alliance of Native American nations located in the Great Lakes region. Despite the pressures of European colonialism, the nations remain strong. Can the Council of Three Fires maintain their independence?"
KLM,Kalmykia,,"Located in the western steppe of the Eurasian continent, the Kalmyk Khanate is determined to remain independent in the face of Russian imperialism. Will the Khanate be able to resist foreign incursions?"
